Name,AddressDetails,Latitude,Longitude
Bar Prague - Shoreditch,"6 Kingsland Road, London",51.5274583,-0.0778986
Barbican Centre,"Silk Street, London",51.5200768,-0.093263
Bernie Grant Arts Centre,London,51.587636,-0.072292
Bottega Prelibato,"45 Rivington Street, London",51.5261062,-0.081441
Copeland Park & Bussey Building,"133 Copeland Road, London",51.469852,-0.066321
Institute Of Contemporary Arts,"The Mall, London",51.5063335,-0.1309615
Village Underground,"54 Holywell Lane, London",51.5235754,-0.0784806
Asda,"31 Roehampton Vale, Roehampton",51.4394149,-0.2464637
Asda Barking Superstore,"Genoa Building, 2 Short Blue Place, Barking",51.537657,0.0771205
Asda Harlow Superstore,"The Water Gardens, South Gate, Harlow",51.767202,0.0961391
Asda Old Kent Road Superstore,"464 - 504 Old Kent Road, London",51.4847033,-0.0699537
BB's Coffee & Muffins,"53 The Harlequin Centre, Watford",51.6542301,-0.3925443
Belle Epoque Patisserie,"37 Newington Green, London",51.5521744,-0.0847708
Ben's Cookies,"9 Pelham Street, London",51.4940179,-0.1742724
Crepeaffaire,"Westfield London Shopping Centre, Ariel Way, London",51.5079205,-0.2218471
Franze & Evans,"101 Redchurch Street, London",51.5248216,-0.0726176
GAIL's Artisan Bakery,"75 Salusbury Road, London",51.5354442,-0.2049822
GAIL's Artisan Bakery,"138 Portobello Road, London",51.5145603,-0.204058
Krispy Kreme,"492 Great Cambridge Road, Enfield",51.65229,-0.059457
Le Pain Quotidien,"48-49, The Market, Covent Garden Piazza, Henrietta Street, London",51.5118629,-0.1223308
Le Pont de la Tour,"36D Shad Thames, London",51.5036889,-0.0738379
Lilys Indulgence,"107B George Lane, London",51.5924594,0.0270103
Lyric Hammersmith,"One Lyric Square, King Street, London",51.4932581,-0.2261521
Maison Fraise Patisserie,"50 High Street, Ilford",51.589674,0.081854
Only Eggless Cakes / Eggfree Cakes,"400 Kenton Road, Harrow",51.587288,-0.300298
Ottolenghi,"13 Motcomb Street, London",51.4994498,-0.1566639
Patisserie Valerie,"318 Chiswick High Road, London",51.4925533,-0.2615303
Patisserie Valerie,"174-176 Queensway, London",51.5154547,-0.1880112
Patisserie Valerie,"162 Piccadilly, London",51.5077325,-0.1402784
Patisserie Valerie,"24 Torrington Place, London",51.5217452,-0.1341498
Patisserie Valerie,"80 Long Acre, London",51.5144363,-0.122377
PAUL Fleet Street,"147 Fleet Street, London",51.514325,-0.1073351
PAUL Gloucester Road,"73 Gloucester Road, London",51.4948104,-0.1825756
PAUL Holland Park,"82a Holland Park Avenue, London",51.5072122,-0.2060361
Paul Rhodes Bakery Inc,"37 King William Walk, London",51.4820328,-0.0089093
PAUL Richmond,"13 The Quadrant, Richmond Upon Thames",51.4620444,-0.3030747
Peggy Porschen Cakes Ltd,"116 Ebury Street, London",51.493285,-0.150515
Pooja Sweets & Savouries kingsbury ltd,"487 Kingsbury Road, London",51.585347,-0.277364
R Chocolate London,"198 Ebury Street, London",51.4910109,-0.1529265
Seoul Bakery,"14 Great Russell Street, London",51.5172291,-0.1297539
The Good Food Co.,"36 Craven Road, London",51.5137595,-0.1791948
The Hummingbird Bakery,"133 Portobello Road, London",51.5140807,-0.2038636
The Hummingbird Bakery,"155 Wardour Street, London",51.5144331,-0.1348313
The Hummingbird Bakery - Spitalfields,"Nido Building, 11 Frying Pan Alley, Spitalfields, London",51.5178613,-0.0766079
The Pantry,"3 Balgores Lane, Romford",51.5861924,0.2000679
Uppercrust,"Ninefields, Waltham Abbey",51.6862417,0.0215455
Violet,"47 Wilton Way, London",51.545515,-0.0641014
2 Veneti,"10, Wigmore Street, London",51.5168248,-0.1466737
333 Mother Bar,"333 Old Street, London",51.5271406,-0.0804137
54 Boutique Hotel,"54 Queen's Gate, London",51.496308,-0.1796217
Academy,"Union Of Brunel Students, Cleveland Road, Uxbridge, Middlesex, UB8 3PH",51.5332726,-0.4741931
Albion - Flaming Grill,"Rainham Road, Rainham",51.5230117,0.1917202
Amba Hotel Charing Cross,"Strand, London",51.508457,-0.124936
Amba Hotel Marble Arch,"Bryanston Street, London",51.5144004,-0.1565506
Angel,"48 Sun Street, Waltham Abbey",51.6868013,0.0006892
Angerstein Hotel,"108 Woolwich Road, London, Greenwich",51.4863488,0.0174036
Apex City of London Hotel,"1 Seething Lane, London",51.510567,-0.079374
Apex London Wall Hotel,"7-9 Copthall Avenue, London",51.5160014,-0.088105
Apex Temple Court Hotel,"1-2, Serjeants' Inn, Fleet Street, London",51.5137335,-0.1087512
Artigiano,"12a Belsize Terrace, London",51.5489873,-0.171032
ASPACE - Chiswick,"140 Chiswick High Road, Chiswick",51.4929345,-0.2535074
Asteras Restaurant,"6 Foxes Parade, Waltham Abbey",51.686494,0.001147
Avenue Bar & Lounge,"179-199 Holland Park Avenue, London",51.5047382,-0.2141721
Bakers Arms,"Sewardstone Road, Waltham Abbey",51.6680164,0.0022394
Balfour Restaurant,"75-77 Marchmont Street, London",51.525487,-0.1255906
Bar 101,"101-103 High Street, Ruislip",51.5737352,-0.4235588
Barrio Shoreditch,"141-143 Shoreditch High Street, London",51.5259171,-0.0781236
Barts,"Chelsea Cloisters, 87 Sloane Avenue, London",51.492671,-0.167192
Bavarian Beerhouse Old Street,"190 City Road, London",51.5277456,-0.0905302
Beach Blanket Babylon Notting Hill,"45 Ledbury Road, London",51.513792,-0.199155
Beaconsfield Hotel,"359 Green Lanes, London",51.5763554,-0.0988507
Beefeater Red House,"Redbridge Lane East, Ilford",51.5769377,0.0448469
Bengal Lancer,"84 Longbridge Road, Barking",51.541329,0.0844001
Best Western London Highbury,"374 Seven Sisters Road, London",51.5679268,-0.0992347
Best Western PREMIER Shaftesbury Kensington Hotel,"35-37 Hogarth Road, London",51.493767,-0.191773
Big Chill Bar,"Dray Walk, Brick Lane, London",51.5211789,-0.072823
Big Chill House,"257-259 Pentonville Road, London",51.530808,-0.119887
Bingham,"61-63 Petersham Road, Richmond",51.4552396,-0.3032999
Black Horse,"Black Horse Parade, High Road, Eastcote, Pinner",51.5845246,-0.4066388
blagclub Notting Hill Gate,"68 Notting Hill Gate, London",51.5092804,-0.1959686
Blue Ginger,"383 Kenton Road, Harrow",51.5870969,-0.3024857
Blue Room,"53 Wembley Hill Road, Wembley",51.5559513,-0.2864318
Blueberry Bar,"2-4 Paul Street, London, Shoreditch",51.522189,-0.084429
Boisdale of Canary Wharf,"Cabot Place, London",51.5052016,-0.0220318
Boulevard Brasserie,"40 Wellington Street, London",51.5124973,-0.1208694
Breakspear Arms,"Breakspear Road South, Uxbridge",51.5802165,-0.4480362
Brewers Fayre Rising Sun,"2 Ascot Road, Herts, Watford",51.6516419,-0.4240961
Brewers Fayre Royal Forest,"Rangers Road, Chingford",51.634317,0.016799
Brook Green Hotel,"170 Shepherds Bush Road, London",51.4972637,-0.2229749
C??te Brasserie,"83-84 Hampstead High Street, London",51.5554528,-0.1760998
Callooh Callay,"65 Rivington St, London",51.5262938,-0.0799016
Carnaby Zebrano,"14-16 Ganton Street, London",51.513064,-0.1390998
Carpenters Arms,"Middlesex House, 1370, 800 Uxbridge Road, Hayes",51.5265894,-0.4377992
Cart & Horses,"1 Maryland Point, London",51.5458798,0.0043845
Catcher in the Rye,"317 Regents Park Road, London",51.5995853,-0.1960031
Century,"454 Romford Road, Stratford Newham, London",51.5474359,0.0356024
Chamberlain Hotel London,"130-135 Minories, London",51.5122492,-0.0757285
Champers Bar,"184 Field End Road, Eastcote",51.577503,-0.3986046
Charlotte's Bistro,"6 Turnham Green Terrace, London",51.4931449,-0.2552049
Chinese Overseas Restaurant & Take Away,"411 High Street, London",51.5397152,0.0003819
Circle Lounge,"12-13 Station Parade, Kenton Lane, Harrow",51.6008541,-0.3195515
Clayton Crown Hotel,"152 Cricklewood Broadway, London",51.5561548,-0.2141824
Clayton Hotel Chiswick,"626 Chiswick High Road, London",51.492379,-0.278445
Coach & Horses Hotel,"8 Kew Green, Richmond",51.4832509,-0.2864098
Cock Inn,"Cock Green, Harlow",51.7578477,0.0780177
Cock Tavern,"218 High Street, Chipping Ongar, Ongar",51.7055535,0.245562
Comedor Grill and Bar,"176 Upper Street, London",51.5415742,-0.1030688
COMO Metropolitan London,"19 Old Park Lane, London",51.5050032,-0.1500183
COMO The Halkin London,"5-6 Halkin Street, London",51.500815,-0.152091
Core Bar,"Aldermary House, 10-15 Queen Street, London",51.5128534,-0.0927897
Courthouse Hotel,"19 - 21 Great Marlborough Street, London",51.5143566,-0.1394682
Cricketers,"299-301 High Road, Woodford Green",51.6018644,0.0190444
Dalla Terra,"Saint Martins Courtyard, 25 Slingsby Place, London",51.512792,-0.126342
Dalston Superstore,"117 Kingsland High Street, London",51.5500926,-0.0753875
Dama de Elche,"7 Cambridge Park, London",51.5754344,0.0272458
Diamonds & Strings Strip Club & Bar,"9 Market Street, Watford",51.6551913,-0.397279
Drapers Bar & Kitchen,"Mile End, 17 Godward square, London",51.523052,-0.0425141
Duke of Wellington,"Wellington Hill, High Beech, Loughton",51.6670457,0.0338066
Duke Of Wellington,"36 High Street, Town Centre, Epping",51.696339,0.1073373
Dukes Head Inn,"42 The Vineyard, Richmond",51.4585477,-0.2995954
Earl Haig,"286 Bath Road, Hounslow",51.472672,-0.3860441
Eat 17,"28-30 Orford Road, London",51.5825519,-0.0131045
Epping Upper Clapton Rugby Football Club,"Upland Road, Epping",51.724985,0.121751
ERIKI,"Crowne Plaza London, Stockley Road, West Drayton",51.4993509,-0.4541891
Essenza Ristorante italiano,"210 Kensington Park Road, London",51.5162119,-0.2061365
Every Hotel Piccadilly,"Coventry Street, London",51.5102137,-0.1315736
Fiskardo Restaurant,"Fairlop Waters, Forest Road, Ilford",51.594918,0.098063
Forest Gate,Epping,51.6902373,0.0975186
Forester,"2 Leighton Road, London",51.506086,-0.320489
Foresters Arms,"15 Baldwin's Hill, Loughton",51.6592508,0.0625221
Forge,"24 Cornhill, London",51.5131559,-0.0871084
Forman's,"Stour Road, London",51.539221,-0.021498
Four Seasons,"84 Queensway, London",51.5129426,-0.1874419
Four Seasons Hotel London at Park Lane,"Hamilton Place, Park Lane, London",51.504439,-0.149911
Franco Manca,"144 Chiswick High Road, London",51.492929,-0.253664
Funky Brownz,"63-65 Hyde Estate Road, London",51.583466,-0.2471996
George's Fish & Souvlaki Bar,"164 George Lane, London",51.593791,0.0248311
Goodenough Club,"23 Mecklenburgh Square, London",51.5254073,-0.1176524
Goodman,"11 Old Jewry, London",51.5143491,-0.0905123
Goodman,"3 South Quay Square, London",51.5013144,-0.0182645
Grange Blooms Hotel,"7 Montague Street, London",51.5201759,-0.1260993
Grange Holborn Hotel,"50 - 60 Southampton Row, London",51.519271,-0.121119
Grange Langham Court Hotel,"31-35 Langham Street, London",51.519181,-0.1412305
Grange Strathmore Hotel,"41 Queen's Gate Gardens, London",51.4958184,-0.1813958
Grange Tower Bridge Hotel,"45 Prescot Street, London",51.5115992,-0.0719368
Grange White Hall Hotel,"2-5 Montague Street, London",51.519944,-0.1259094
Grove Hill Hotel,"38 Grove Hill, London",51.593949,0.018011
Hawksmoor Spitalfields,"157A Commercial Street, London",51.5214383,-0.0758446
High Road House,"162-166 Chiswick High Road, London",51.4928963,-0.2547651
Hilton London Metropole,"225 Edgware Road, London",51.5193866,-0.1696349
Holiday Inn London - Heathrow Ariel,"118 Bath Road, Harlington, Hayes",51.4812169,-0.4333474
Holiday Inn London - Heathrow M4 Jct.4,"Sipson Road, Sipson, West Drayton",51.4945112,-0.4558786
Holiday Inn London - Kensington Forum,"97 Cromwell Road, London",51.494236,-0.185217
Holiday Inn London - Regent's Park,"Carburton Street, London",51.5225205,-0.142789
Holiday Inn London Bloomsbury,"Coram Street, London",51.5239645,-0.1249877
Holiday Inn London Brent Cross,"Tilling Road, London",51.5730318,-0.2225228
Holiday Inn London Mayfair,"3 Berkeley Street, London",51.507658,-0.142449
Hotel ibis London Blackfriars,"49 Blackfriars Road, London",51.5049391,-0.1048154
Hotel ibis London City,"5 Commercial Street, London",51.5156703,-0.07245
Hotel ibis London Euston St Pancras,"3 Cardington Street, London",51.5278598,-0.1358005
Hotel Novotel London Paddington,"3 Kingdom Street, London",51.519032,-0.1825943
Hudson Bay,"1-5 Upton Lane, London",51.54581,0.0260231
Innkeeper's Lodge Hornchurch,"Station Lane, Hornchurch",51.5547091,0.2190875
Iroha,"31 Vivian Avenue, London, Hendon",51.5824642,-0.229157
Itsu,"100 Notting Hill Gate, London",51.5090401,-0.1976909
Jackson's,"78-80 Northfield Avenue, London",51.5035426,-0.3178683
Kanaloa,"18, Hill House, Wine Office Court, Shoe Lane, Chancery Lane, London",51.5153044,-0.1064193
Kew Gardens Hotel,"292 Sandycombe Road, Richmond",51.476052,-0.286915
King Edward VII,"47 Broadway, London",51.5411416,0.0028814
King Of Kings,"443-445 Barking Road, London",51.5335472,0.057239
King Solomon Hotel,"155-159 Golders Green Road, London",51.5753331,-0.2039254
King's Oak Hotel,"Paul's Nursery Rd, Loughton",51.6642738,0.0399808
Kona Kai,"515 Fulham Road, London",51.480161,-0.1923177
Kosho,"72-74 South Street, Romford",51.5763768,0.1820333
Kosmopol,"138 Fulham Road, London",51.487304,-0.1789609
La Face,"169-171 Fore Street, London",51.6139555,-0.0646984
La Trompette,"5-7 Devonshire Road, Chiswick",51.4919007,-0.2560149
Launceston Place,"1A Launceston Place, London",51.4991854,-0.1853583
Lizard Lounge,"186-188 George Lane, London",51.5945744,0.0239405
Lomito Northwood,"41 Green Lane, Northwood",51.6118655,-0.4252244
London Marriott Hotel Twickenham,"198 Whitton Road, Twickenham",51.4551308,-0.3398592
London Marriott Hotel West India Quay,"22 Hertsmere Road, London",51.5073197,-0.0209147
Luxe Essex,"126 High Road, Loughton, Essex",51.6454755,0.0529591
Mabel's Bar & Kitchen,"30 Maiden Lane, London",51.5106852,-0.1234406
Made Bar and Kitchen,"Roundhouse, Chalk Farm Road, London",51.5434573,-0.1520464
Maggie Jones's,"6 Old Court Place, London",51.5028316,-0.1910066
Mahiki,"1 Dover Street, London",51.5077555,-0.1413888
Malmaison London,"18-21 Charterhouse Square, London",51.5207767,-0.1004613
Mamma mia cucina,"92 Station Road, London",51.6329536,0.0078628
Mandarin Bar,"66 Knightsbridge, London",51.502153,-0.159723
Mango Indian,"Cromwell Building, 6 Redcross Way, London",51.504962,-0.092942
Mantra,"253 Bath Rd, Hounslow, L12:00AMondon",51.4710146,-0.3800984
Master Robert Hotel,"366 Great West Road, Hounslow, London",51.4781864,-0.3728619
Matchbox,"Danco Shoes, 134-135 Shoreditch High Street, London",51.5264976,-0.0782909
ME London,"336-337 Strand, London",51.5120219,-0.1183297
Mecca Bingo,"Dagenham Leisure Park, Cook Road, Dagenham",51.5321389,0.137206
Middlesex Arms,"Long Drive, Ruislip",51.5572958,-0.3974502
Miller & Carter Chigwell,"Manor Road, Abridge, Romford",51.6289895,0.1338605
Miller & Carter Newbury Park,"Aldborough Road North, Ilford",51.585388,0.1026512
Mirage,"740 Eastern Avenue, Ilford",51.5732755,0.084
Monkhams,"Buckhurst Way, Buckhurst Hill",51.618135,0.045417
Moore Spice (1966) Indian Restaurants Wembley,"2, Wembley Retail Park, Engineers Way, Wembley",51.559544,-0.277943
Mooro's,"Woolston Hall, Abridge Road, Chigwell",51.6417315,0.0939457
Myllet Arms - Fayre & Square,"Myllet Arms, Western Avenue, Perivale, Greenford",51.5329916,-0.3231047
Namaste Lounge,"66 Joel Street, Northwood",51.600334,-0.410086
New Globe Hotel,"359 Mile End Road, London",51.5244954,-0.0367991
Nordic Bar,"25 Newman Street, London",51.51787,-0.1357191
Old Oak Tree Inn,"1 The Common, Southall",51.4951506,-0.3879964
One The Avenue,"1C The Avenue, London",51.6086284,0.0001795
O'Neill's,"Oceanair House, 762 High Road Leytonstone, London",51.570559,0.0152271
Osteria Basilico,"29 Kensington Park Road, London",51.5153672,-0.2058448
Palmers Lodge Hillspring,"233 Willesden Lane, London",51.5457922,-0.2191016
Palmers Lodge Swiss Cottage,"40 College Crescent, London",51.5454981,-0.1760786
Pierino Pizza Pasta,"37 Thurloe Place, London",51.4951075,-0.1740177
Plateau,"4th Floor, Canada Square, London",51.5047048,-0.016623
Plough,"Sewardstone Road, Waltham Abbey",51.6667331,0.0009701
Plough and Harrow,"419 High Road Leytonstone, London",51.5570933,0.006123
Portobello House,"225 Ladbroke Grove, London",51.5199886,-0.2117322
Portobello Star,"171 Portobello Road, London",51.5147822,-0.2045484
Proud Cabaret,"1 Mark Lane, London",51.5112667,-0.0803352
Proud Camden,"The Horse Hospital, The Stables Market, Chalk Farm Road, London",51.5427034,-0.1490838
Pub On The Park,"19 Martello Street, London",51.5420615,-0.0581981
PubLove @ the Steam Engine,"41-42 Cosser Street, London",51.4968274,-0.1126574
Purl London,"50-54 Blandford Street, London",51.518467,-0.154427
Quality Hotel London,"Empire Way, Wembley",51.5598399,-0.2835249
Queen Elizabeth,"95 Forest Side, London",51.6302603,0.0156712
Queen Of Hoxton,"1 Curtain Road, London",51.5221725,-0.0812749
Queen Victoria,"Coppice Row, Theydon Bois, Epping",51.672157,0.099448
Radisson Blu Edwardian Berkshire,"350 Oxford Street, London",51.514865,-0.148385
Radisson Blu Edwardian Grafton,"130 Tottenham Court Road, London",51.524188,-0.137919
Radisson Blu Edwardian Sussex,"19-25 Granville Place, London",51.5144381,-0.1558337
Radisson Blu Edwardian Kenilworth,"97 Great Russell Street, London",51.5178192,-0.128004
Radisson Blu Edwardian Vanderbilt,"68-86 Cromwell Road, London",51.4953691,-0.1818966
Railway Hotel - Flaming Grill,"390 Oldfield Lane North, Greenford",51.5431512,-0.345057
Red Cow Pub,"59 Sheen Road, Richmond",51.4616906,-0.2969401
Reflex,"66-68 The Parade, Watford",51.6581493,-0.4002572
Rehab Bar & Club,"83 The Parade, High Street, Watford",51.6579914,-0.4000126
Reids,"23 Hay Lane, London",51.588257,-0.2629896
Revolution,"4 Whittaker Avenue, Richmond",51.458852,-0.3071411
Rileys Sports Bar,"Town Centre, Cross Street, Harlow",51.7686722,0.0944032
Rocket Restaurant,"2 Churchill Place, London",51.5042601,-0.0147009
Rosso Restaurant,"1 The Broadway, Woodford Green",51.607516,0.0331009
Royal Garden Hotel,"2-24 Kensington High Street, London",51.502662,-0.188083
Ruby's Restaurant & Bar,"96A High Street, Southall",51.5105979,-0.371615
Rumba,"36 Shaftesbury Avenue, London",51.5111877,-0.1331743
Ruskin,"Ruskin Arms, 386 High St N, London",51.5449845,0.0498742
Rydges Kensington London,"61 Gloucester Road, London",51.495605,-0.182846
Sake no hana,"23 Saint James's Street, London",51.5066378,-0.1391767
Salsa!,"96 Charing Cross Road, London",51.5139961,-0.1293811
Salt Bar,"269 West End Lane, London",51.5505276,-0.1915855
Sambuca,113 Field End Road,51.5797808,-0.3993978
Sanctum Soho Hotel,"20 Warwick Street, London",51.5116235,-0.1383634
Shark,"Hobtoe Road, Harlow",51.7739213,0.0808172
Sheesh Restaurant,"High Road, Chigwell",51.6244494,0.080932
Simmons Bar | King's Cross,"32 Caledonian Road, London",51.5318554,-0.120592
Simpsons Tavern,"38 1/2, Ball Court Alley, Cornhill, London",51.5132106,-0.0860746
So Bar,"10 Brewers Lane, Richmond",51.4609525,-0.3051363
Sofitel London St James,"6 Waterloo Place, London",51.5076012,-0.132263
Southern Cross - Flaming Grill,"41-43 Langley Road, Watford",51.664567,-0.404237
Spotlight Disco,"64 Westfield, Harlow",51.7624858,0.106363
St. Margarets,"107 Saint Margarets Road, Twickenham",51.454784,-0.319337
STAGE 3,"291 Mare Street, London",51.5454544,-0.0555699
Star Lounge,"32 Railway Approach, Harrow",51.5902181,-0.3326585
Station House,"134-138 Station Road, London",51.6335986,0.0094635
Strawberry Moons,"15 Heddon Street, London",51.5108588,-0.1394886
Strongroom Bar & Kitchen,"120-124 Curtain Road, London",51.5259577,-0.0801095
Sun Inn,"Broadley Common, Nazeing",51.7398573,0.0547332
Sway Bar,"61-65 Great Queen Street, London",51.5156454,-0.1205317
Sync Bar,"1 Rickmansworth Road, Pinner",51.5978832,-0.3957887
T.G.I. Friday's,"Enfield Leisure Park, 200 Southbury Road, Enfield",51.650685,-0.0635
Tamingo - Arista Bar,"232 Church Lane, London",51.5732114,-0.2618315
The Albion,"94 Goldsmiths Row, London",51.5336844,-0.0644435
The Alma,"499 Old York Road, London",51.4607108,-0.1876696
The Anglesea Arms,"15 Selwood Terrace, London",51.49013,-0.176907
The Approach Tavern,"47 Approach Road, London",51.5313378,-0.0517103
The Athenaeum Hotel & Residences,"116 Piccadilly, London",51.504716,-0.1475618
The Baileyƒ??s Hotel London,"140 Gloucester Road, London",51.494017,-0.182584
The Bar With No Name,"69 Colebrooke Row, London",51.5365241,-0.1010578
The Barking Dog,"61 Station Parade, Barking",51.5397872,0.0814694
The Beacon Tree,"Green Lane, Dagenham, Greater London",51.5614209,0.1416368
The Black Lion,"293 High Street, Epping",51.7007378,0.113355
The Blue Boar,"Market Place, Abridge, London",51.650972,0.117874
The Boathouse,"32 Brewhouse Lane, London",51.4652741,-0.2127327
The Book Club,"100-106 Leonard Street, London",51.5245391,-0.0815041
The Botanist,"3-5 Kew Green, Richmond",51.4829529,-0.2870436
The Brewers Inn,"147 East Hill, London",51.4567004,-0.1894303
The Brewery Tap,"020 8568 6006, 47 Catherine Wheel Road, Brentford",51.48242,-0.306195
The Brickyard Bar & Grill,"222 South Street, Romford",51.5715121,0.1841151
The Bridge Hotel,"Western Avenue, Greenford, London",51.5365224,-0.3454407
The Bull,"Theydon Bois, Epping",51.6713947,0.1012182
The Castle,"31 Bosanquet Close, Uxbridge",51.5283966,-0.4759147
The Castle,"30 West Street, Harrow",51.572134,-0.339952
The Castle E17,"15 Grosvenor Rise East, London",51.5806837,-0.0112768
The Churchill Arms,"119 Kensington Church Street, London",51.50693,-0.194792
The Clerk and Well,"156 Clerkenwell Road, London",51.522148,-0.110684
The Continental Hotel,"29-31 Lampton Road, Hounslow",51.469544,-0.366264
The Coy Carp,"Fishery Cottages, Copper Mill Ln, Harefield, Uxbridge",51.6095645,-0.4991731
The Crooked Billet,"84 Upper Clapton Road, London",51.5622068,-0.0572694
The Crown,"High Road Cowley Peachey, Uxbridge",51.5308693,-0.4821288
The Crown,"Ealing Road, Northolt",51.5446784,-0.3705912
The Cuckfield,"31 High Street, London",51.5793261,0.0249154
The Cumberland - A Guoman Hotel,"Great Cumberland Place, London",51.5138631,-0.1587384
The Dalston Jazz Bar,"4 Bradbury Street, London",51.548686,-0.07635
The Dolphin,"47 Tonbridge Street, London",51.5290068,-0.1247288
The Dove,"19 Upper Mall, London",51.4905038,-0.234873
The Drayton Court hotel,"2 The Avenue, London",51.5142517,-0.3192896
The Duck in the Pond,"Kenton Lane, Harrow",51.6044317,-0.3273649
The Duke - E17,"112 Wood Street, London",51.588065,-0.004366
The Eagle,"215 Askew Road, London, Shepherd's Bush",51.5006091,-0.2393044
The Eagle,"2 Shepherdess Walk, London",51.5286095,-0.0916472
The Eagle,"103 Wick Road, London",51.5453337,-0.0414529
The Egerton House Hotel,"17-19 Egerton Terrace, London",51.4968261,-0.1675889
The Elbow Room,"503-505 High Road, London, Tottenham",51.5934653,-0.069795
The Elysian Restaurant,"11 Stanmore Hill, Stanmore",51.6180739,-0.3121389
The Finsbury,"336 Green Lanes, London",51.5719117,-0.0963704
The Fishermans Arms,"50 Old Oak Lane, Brent Park, London",51.529697,-0.2492473
The Flask,"14 Flask Walk, London",51.5565821,-0.1773395
The Forest Gate Inn,"111 Bell Common, Epping",51.6902012,0.0974577
The Fountain,"125 West Green Road, London",51.5850754,-0.0794577
The Fountain,152 Station Road,51.6337602,0.0098238
The Fox & Goose Hotel,"Hanger Lane, London",51.533212,-0.2956206
The Fox At Excel,"Warehouse K, ExCel Centre, 2 Western Gateway, London",51.5088007,0.025366
The Fox Craft Beer House,"372 Kingsland Road, London",51.5406852,-0.0762739
The Gardens,"188 Broadhurst Gardens, London",51.5465577,-0.1901226
The Gate,"Rickmansworth Road, Northwood",51.6151815,-0.4392254
The Gate,"Barnet Road, Arkley",51.6420552,-0.2424185
The George,"159 High Street, London",51.5759759,0.028247
The George and Dragon,"208 High Street, Epping",51.6995829,0.1122985
The Globe,"104 Windmill Road, Brentford",51.490552,-0.3097129
The Globe,"103 Talbot Road, London",51.5166729,-0.2004943
The Globe,"20 Morning Lane, London",51.5458912,-0.0537608
The Good Earth,"143-145 The Broadway, London",51.6167856,-0.2456098
The Grand At Trafalgar Square,"8 Northumberland Avenue, London",51.506969,-0.125992
The Great Western,"Dawley Road, Hayes",51.497337,-0.430508
The Green Man,"Village Road, Denham, Uxbridge",51.5731281,-0.4987951
The Green Man Hotel,"Dagmar Avenue, Wembley",51.557494,-0.2896678
The Greyhound Pub,"82 Kew Green, Richmond Upon Thames",51.4851949,-0.2861323
The Grill at The Dorchester,"53 Park Lane, London",51.5072728,-0.1522401
The Grosvenor Hotel,"101 Buckingham Palace Road, London",51.4956621,-0.1452281
The Gun,"27 Coldharbour, Docklands, London",51.501834,-0.00773
The Hand & Flower,"1 Hammersmith Road, London",51.495912,-0.2080809
The Holly Bush,"22 Holly Mount, London",51.5578684,-0.1793277
The Hollybush,"140 High Road, Loughton",51.6457333,0.0532248
The Horseshoes,"Horseshoe Hill, Waltham Abbey",51.6903943,0.0453117
The Jugged Hare,"49 Chiswell Street, London",51.5209403,-0.092217
The Junction,"9 Gayton Road, Harrow",51.5795515,-0.3324914
The King William Hotel,"155-157 Trafalgar Road, London",51.4848336,0.0032876
The Kings Head,"High Road, North Weald Bassett, Epping",51.7134689,0.1642452
The Ladbroke Arms,"54 Ladbroke Road, London",51.5090799,-0.2029265
The Lane,"82 Nightingale Lane, London",51.5811746,0.028408
The Lane Bar,"1220 Osborn Street, London",51.5166315,-0.0699003
The Lexington,"96-98 Pentonville Road, London",51.5317601,-0.1114281
The Lodge Tavern,"53 The Mall, London",51.5138076,-0.2995019
The Lord Stanley,"15 Saint Mary's Road, Newham, London",51.5314485,0.0266735
The Mad Hatter Hotel,"3-7 Stamford Street, London",51.5070217,-0.104919
The Malt House,"17 Vanston Place, London",51.4813144,-0.1981805
The May Fair,"Stratton Street, London",51.5081167,-0.1439504
The Millers Well,"419-421 Barking Road, London",51.533453,0.0563718
The Moon Under Water,"44 High Street, Watford",51.6564795,-0.3978284
The Nags Head,"9 Orford Rd, Walthamstow",51.5840276,-0.0112165
The Nightingale,"51 Nightingale Lane, London",51.5815968,0.0284726
The North London Tavern,"375 Kilburn High Road, London",51.5456062,-0.202451
The North Star,"43 The Broadway, Ealing Broadway, London",51.513833,-0.301882
The North Star,"24 Browning Road, London",51.5698169,0.0153645
The Old Orchard,"Park Lane, Harefield, Uxbridge",51.6027857,-0.4905277
The Old Ship,"2 Sylvester Path, London",51.5458477,-0.0554112
The Old Shoreditch Station,"1 Kingsland Road, London",51.5273267,-0.0782264
The Orange Tree,"45 Kew Road, Richmond",51.4642281,-0.3015346
The Owl,"Lippitts Hill, Waltham Abbey, Loughton",51.6543782,0.020177
The Owl & Pussycat,"34 Redchurch Street, London",51.524267,-0.075482
The Owl & The Pussycat,"106 Northfield Avenue, London",51.5029579,-0.3170237
The Parlour Bar,"The Park Pavilion, 40 Canada Square Park, London",51.5049942,-0.0188572
The Pilot,"56 Wellesley Road, London",51.490301,-0.2777127
The Plume of Feathers,"123 Church Hill, Loughton",51.6552577,0.0663733
The Poplar Kitten,"Tawneys Road, Harlow",51.7571144,0.1117805
The Pride Of Paddington,"1-3 Craven Road, London",51.51501,-0.1763536
The Prince Of Wales,"63 Green Lane, Ilford",51.5590849,0.085978
The Princess of Shoreditch,"76-78 Paul Street, London",51.5253889,-0.0837493
The Queens Arms,"30 Queen's Gate Mews, London",51.4992765,-0.1808443
The Raglan Hotel,"8-12 Queens Avenue, London",51.5919238,-0.1441529
The Railway Tavern,"131 Angel Lane, London",51.5451031,8.80E-05
The Rainbow & Dove,"Hastingwood Road, Hastingwood, Harlow",51.7458245,0.1457806
The Red Lion,"13 Saint Mary's Road, London",51.5080511,-0.3049326
The Red Lion Hotel,"Royal Lane, Hillingdon, Uxbridge",51.5347124,-0.4614959
The Regency Club,"18-21 Queensbury Station Parade, Edgware",51.5941535,-0.2844097
The Royal Oak,"Oak Hill Road, Stapleford",51.62832,0.1825676
The Ruskin Arms Pub & Hotel,"386 High Street North, London",51.5450768,0.0498544
The Ship,"290 Westferry Road, London",51.487816,-0.017816
The Ship Inn,"93 Main Road, Romford",51.5869666,0.2010099
THE SHOP NW10,"75 Chamberlayne Road, London",51.5338142,-0.2186737
The Shoreditch,"145 Shoreditch High Street, London",51.525888,-0.078148
The Slug And Lettuce,"George Ln, London, South Woodford",51.5944903,0.024017
The Social,"5 Little Portland Street, London",51.5173006,-0.1407693
The Speak Easy Bar,"175 High Street, Epping",51.698746,0.1107393
The Stag,"35 Little Park Gardens, Enfield",51.6529129,-0.086482
The Stag,"Brentwood Rd, Ongar",51.6965105,0.246773
The Sterling,"30 Saint Mary Axe, London",51.5144711,-0.0803381
The Sun,"21 Sun Street, Waltham Abbey",51.6866286,-0.0012102
The Sun Public House,"47 London Road, Romford",51.575446,0.176135
The Swan Inn,"Fuller Smith & Turner, Swan Street, Isleworth",51.46894,-0.3241764
The Three Compasses,"99 Dalston Lane, London",51.5482558,-0.0685821
The Three Hammers,"The Ridgeway, Hammers Lane, London",51.621482,-0.233955
The Three Jolly Wheelers,"735 Chigwell Road, Woodford Green",51.6091542,0.0590247
The Tokenhouse,"4 Moorgate, London",51.5152654,-0.0893253
The Tollgate,"High Road, Romford, Greater London",51.572514,0.1413473
The Tommyfield,"185 Kennington Lane, London",51.4886499,-0.1108151
The Torch,"1-5 Bridge Road, Wembley",51.5649156,-0.2773142
The Tower Hotel,"Saint Katharine's Way, London",51.5066203,-0.0727792
The Two Brewers,"57 Lambourne Road, Chigwell",51.621884,0.120074
The Valentine,"27-37 Perth Road, Ilford",51.5755194,0.0681011
The Vault Champagne & Wine Bar,"15 Broadway, Woodford Green",51.608172,0.033431
The Victoria,"10 West Temple Sheen, Richmond",51.4611219,-0.2756216
The Victoria Tavern,"165 Smart's Lane, Loughton",51.648774,0.0509567
The Village Kitchen,"41 Orford Road, London",51.582635,-0.012181
The Walnut Tree,"857-861 High Road Leytonstone, London",51.5698236,0.0128857
The WatersEdge Bar and Restaurant,"Packet Boat Lane, Uxbridge",51.519885,-0.483076
The Wellington Hotel,"81-83 Waterloo Road, London",51.5037243,-0.1114111
The White Bear,"Ickenham Road, Ruislip",51.571883,-0.431216
The William Aylmer,"Aylmer House, Kitson Way, Harlow",51.7711807,0.0917295
The Windmill,"Windmill Drive, London",51.4575463,-0.1442644
The Windsor Castle,"114 Campden Hill Road, London",51.5063152,-0.1986713
The Wishing Well,"10 The Broadway, Greenford",51.5277902,-0.3528785
The Wishing Well,"11 Hall Lane, London",51.616775,-0.018647
The Woodbine Inn,"Honey Lane, Waltham Abbey",51.6786266,0.0424188
The Woodman,"Breakspear Road, Ruislip",51.585595,-0.441246
The Z Hotels Victoria,"The Victoria, SW1W 0NR Royaume Unix,, 5 Lower Belgrave Street, London",51.4956351,-0.1463101
Thistle Euston Hotel,"Cardington Street, London",51.5291423,-0.1372782
Tommy Tucker,"22 Waterford Road, London",51.4788547,-0.1927593
Topgolf Chigwell,"Abridge Road, Chigwell",51.641738,0.096731
Trailer Happiness,"177 Portobello Road, London",51.5149607,-0.2046587
Travellers Friend,"B181, Epping Green, Epping",51.7302637,0.0758697
Twisted Monkey,"Gade House, The Parade, Watford",51.65772,-0.399657
Under the Bridge,"Stamford Bridge, Fulham Road, London",51.4817905,-0.1897857
Visage,"442-444 Cranbrook Road, Ilford",51.576883,0.0677377
Watford Town and Country Club,"Halsey House, Rosslyn Road, Watford",51.6578925,-0.4013567
Wenlock Arms,"26 Wenlock Road, London",51.5314311,-0.0940006
Wheatsheaf,"Crooked Mile, Waltham Abbey",51.6945356,0.0021646
William IV,"816 High Road Leyton, London",51.5747822,-0.011424
Yates's,"Bath Road, Hounslow",51.4685166,-0.3666713
Ye Olde Black Bull,"13 Broadway, London",51.5401757,0.0008807
Ye Olde Rose & Crown,"53-55 Hoe Street, London",51.5877724,-0.0205927
Yi-Ban,"London Regatta Centre, 1010 Dockside Road, London",51.5076845,0.0412743
Zigfrid von Underbelly,"11 Hoxton Square, London",51.5280281,-0.0817924
Zoo Bar & Club,"13-17 Bear Street, Leicester Square, London",51.510896,-0.129072
Dorsett Shepherds Bush London,"58 Shepherd's Bush Green, London",51.5039578,-0.2247151
IC-ImageMaker,"10 ammonite house, London",51.541938,0.010893
The Football Academy Ltd,"Sports Pavilion, Langston Road, Loughton",51.648303,0.092675
CycleLab & JuiceBar,"16B-18A Pitfield Street, London",51.527156,-0.0835231
Micycle,"47 Barnsbury Street, London",51.5407917,-0.1057951
Books For Cooks,"4 Blenheim Crescent, London",51.5159241,-0.205429
Saklatvala Hall,"22 Dominion Road, Southall",51.5028203,-0.3829159
All Star Lanes,"6 Porchester Gardens, London",51.513881,-0.1882634
All Star Lanes,"95 Brick Lane, London",51.521795,-0.07184
All Star Lanes Westfield Stratford City,"Westfield Stratford City, 2, London",51.5432095,-0.0076885
D & F Party Limited,"Unit 25 Walthamstow Business Centre, Clifford Road, London",51.5922127,-0.0068779
Lava Lanes,"16 Church Road, Stanmore",51.6174,-0.311868
Namco Funscape,"The Brewery, Waterloo Road, Romford",51.5756871,0.1798467
Tenpin Acton,"Royale Leisure Park, Western Avenue, London",51.524645,-0.2809602
@smoothies,"250 High Road Leyton, London, Leyton",51.5592188,-0.0075669
Abbey Point Cafe and B&B,"300-302 Twyford Abbey Road, London",51.5349775,-0.2753256
Abridge Cafe + Deli,"Market Place, Abridge, Romford",51.651169,0.117801
Ace Cafe London,"Ace Corner, North Circular Road, London",51.5412794,-0.2777662
Al Panini Cafe,"58 Broadway, London",51.510558,-0.322479
Al Sultan Restaurant & Cafe,"229 Edgware Road, London",51.5880629,-0.2525
Albion,"2-4 Boundary Street, London",51.5245372,-0.076363
Allpress Espresso Bar,"58 Redchurch Street, Shoreditch",51.5244194,-0.0743493
Amorino,"41 Old Compton Street, London",51.5127812,-0.1321107
Amouage,"32-34 Cricklewood Broadway, London",51.5532636,-0.2110718
Apollo Cafe,"42 Sun Street, Waltham Abbey",51.6868613,0.0001826
Apostrophe,"19 Baker Street, London",51.5175194,-0.1556787
Apostrophe,"10 Grosvenor Street, London",51.5121138,-0.1458047
Arabic Courses,"437-443 High Road Leyton, London",51.563499,-0.011081
Art 4 Fun,"172 West End Lane, London",51.5491582,-0.1911252
Avo Hotel Dalston,"82 Dalston Lane, Hackney",51.5460628,-0.0700817
Barracuda,"45 The Parade, Watford",51.6576237,-0.3990511
Basrah Lounge,"165 Dukes Road, London",51.5239414,-0.2825479
BB's Coffee and Muffins,"Unit 80 Harvey Centre, Harlow",51.7691427,0.0924588
Beaƒ??s of Bloomsbury,"83 Watling Street, London",51.5133677,-0.0955202
Bedford Hotel,"83- 93 Southampton Row, London",51.5207355,-0.123571
Belgique,"29 Cambridge Park, London",51.574948,0.026253
Belgique Cafe and Patisserie in Chingford,"52-54 Station Road, London",51.6321966,0.0058087
Belgique Cafe and Patisserie in Epping,"242 High Street, Epping",51.7008125,0.1140709
Belgique Cafe and Patisserie in Loughton,"200 High Road, Loughton",51.647311,0.054784
Belgique Cafe and Patisserie in South Woodford,"253 High Rd, London",51.6003679,0.0196819
Belgique Cafe and Patisserie in Theydon Bois,"14 Forest Drive, Theydon Bois",51.672055,0.101581
Belgique Cafe and Patisserie in Woodford Green,"11 The Broadway, London",51.6079617,0.0334775
Bengal Spice,"245 West End Lane, London",51.5497318,-0.1916598
Benugo,"14 Curzon Street, London",51.5068862,-0.1472094
Benugo,"23-25 Great Portland Street, London",51.5165676,-0.1412787
Betty Blythe,"73 Blythe Road, London",51.4975888,-0.2175861
Billams Sandwich Bar Cafe,"9B Market Square, Waltham Abbey",51.6866248,-0.0024367
Bites,"Regents Park Road, London, Finchley Central",51.6009722,-0.1939138
Black Cat Cafe,"76 Clarence Road, London",51.5513364,-0.0555392
Blue River Cafe,"6 Clements Road, Ilford",51.5581316,0.0716267
Blue Zenzer Cafe Bar Restaurant,"Playgolf Northwick Park, 280 Watford Road, Harrow",51.5721555,-0.322997
Bluebird Chelsea,"350 King's Road, London",51.4849911,-0.1754714
Bom Pecado,"865 Lea Bridge Road, London",51.5808538,-0.0016102
Brasserie Z??del,"20 Sherwood Street, London",51.510518,-0.135461
Bunters Restaurant,"154 High Street, London",51.5837297,-0.0248736
Butlers Retreat,"12 Ranger's Road, London",51.6344112,0.0175134
Caf?? 1001,"91 Brick Lane, London",51.5209249,-0.0720189
Cafe Anglais,"1-2 Sheaveshill Avenue, London",51.588001,-0.2517669
Cafe At 48,"48 Upton Lane, London",51.544844,0.0259389
Cafe Creperie,"26 James Street, London",51.5151093,-0.1505412
Cafe Elite,"4 The Rows, Harlow",51.7712299,0.0926371
Cafe Grove,"65 The Grove, London",51.5109806,-0.301759
Cafe La Divina,"134 Upper Street, London",51.5392687,-0.1025622
Cafe Mio,"85 High Street, Epping",51.6974096,0.1088725
Cafe On The Lane,"180-182 George Lane, London",51.5943882,0.0241623
Cafe OTO,"18-22 Ashwin Street, London",51.5469127,-0.0746156
Cafe Phillies,"2A Phillimore Gardens, London",51.4998289,-0.1976349
Cafe Plum,"17 Crisp Road, London",51.4886725,-0.2271865
Cafe Rouge,"10 High Street, Ruislip",51.5765527,-0.4270773
Cafe Rouge,"13a, 13 High Street, Pinner",51.5940936,-0.3815375
Cafe Rouge,"85 Strand-On-The-Green, London",51.4873282,-0.2846801
Cafe Rouge,"Unit 4, Quayside Road, St Katharine Docks, London",51.508228,-0.072843
Cafe Rouge,"179-181 High Road, Loughton",51.6453051,0.0532352
Cafe Tarte,"270 Kensington High Street, London",51.4987088,-0.2007955
CAFE VIVALDI,"117 Station Road, London",51.6324467,0.0073737
Cafelicious,"57 The Broadway, Loughton",51.6479368,0.0837873
Caff?? Nero,"St Ann's Shopping Centre, 27 Saint John's Road, Harrow",51.5811242,-0.3352072
Caff?? Nero,"51 New Broadway, London",51.5127161,-0.3071021
Caff?? Nero,"67-70 Station Road, Edgware",51.613149,-0.2769555
Caff?? Nero,"103 Shenley Road, Borehamwood",51.6561076,-0.2756
Caff?? Nero,"386 Chiswick High Road, London",51.4927139,-0.2647952
Caff?? Nero,"23-25 Golders Green Road, London",51.5719205,-0.1968572
Caff?? Nero,"65 Station Road, Chingford",51.6315989,0.0048693
Caff?? Nero,"233 High Road, Loughton",51.6475336,0.055563
Caff?? Nero,"271 High Street, Epping",51.700394,0.1129159
Caffe Caldesi,"118 Marylebone Lane, London",51.5181711,-0.1507863
Caffe Nero,"1 Hampstead High Street, London",51.5554151,-0.1744544
Cakes & Shakes,"587 Cranbrook Road, Ilford",51.5772001,0.0677671
Camden Garden Centre,"2 Barker Drive, St Pancras Way, London",51.540676,-0.134925
Canteen Caffe,"3 Cawley Hatch, Harlow",51.7669008,0.0660163
Caravan King's Cross,"1 Granary Square, London",51.5357972,-0.1253165
CARLTON LONDON CAFE,"38 Chigwell Lane, Loughton",51.644069,0.0823331
CHICCHI,"516 Roman Road, London",51.5323484,-0.0318451
Choccywoccydoodah London Shop,"30-32 Foubert's Place, London",51.5138055,-0.1387748
Claridge's,"Mayfair, Brook St, London",51.5125774,-0.1477617
Climpson and Sons Cafe,"67 Broadway Market, London",51.5374518,-0.0612907
Coffee Cup,"74 Hampstead High Street, London",51.5558063,-0.1771751
Coffee Republic,"215 High Road, Ilford",51.5596434,0.0757466
Comedy Cafe,"68 Rivington Street, London",51.5262193,-0.0794846
Costa,"8, Northwood, Middlesex",51.6116614,-0.4251668
Costa,"100-102 High Street, Ruislip",51.5741176,-0.4245487
Costa,"Unit 6, LOMBARDY RETAIL PARK, Coldharbour Lane, Hayes",51.516698,-0.403603
Costa,"153 Field End Road, Pinner",51.5784865,-0.3991637
Costa,"63-65 College Road, Harrow",51.579944,-0.3366278
Costa,"437 Uxbridge Road, London",51.5099697,-0.2875191
Costa,"108-110 Edgware Road, London",51.5159201,-0.1638328
Costa,"Unit 13, Charing Cross Station, Station Concourse, London",51.5080375,-0.1253127
Costa,"46 Cowcross Street, London",51.5200248,-0.1052254
Costa,"Eldon Street, London",51.518602,-0.0852942
Costa Coffee,"51-52 High Street, Uxbridge",51.5465038,-0.4801487
Costa Coffee,"19 Queen's Road, Watford",51.6563085,-0.3949255
Costa Coffee,"37 High Street, Watford",51.6540015,-0.3938837
Costa Coffee,"241 High Street, Hounslow",51.4682691,-0.3641172
Costa Coffee,"Unit 14, Westway Cross Retail Park, 1000 Greenford Road, Greenford",51.5426931,-0.3394846
Costa Coffee,"50 London Road, Twickenham",51.4476616,-0.3284781
Costa Coffee,"Watford Rd, Harrow",51.575557,-0.3223125
Costa Coffee,"Ealing Broadway Station, New Broadway, London",51.5126754,-0.3043771
Costa Coffee,"6, The Street, London",51.5126244,-0.3042815
Costa Coffee,"Borehamwood Retail Park, Shenley Road, Borehamwood",51.6565048,-0.2771838
Costa Coffee,"The Broadwalk Shopping Centre, Edgware",51.6126677,-0.2754525
Costa Coffee,"389 Upper Richmond Road West, Sheen, London",51.4643621,-0.2679557
Costa Coffee,"24B, Hammersmith Broadway, London",51.4919074,-0.2241366
Costa Coffee,"Westfield London Shopping Centre, Ariel Way, London",51.5078762,-0.2235346
Costa Coffee,"11-13 Golders Green Road, London",51.5717769,-0.1960793
Costa Coffee,"198 Earls Court Road, London",51.4927315,-0.1940398
Costa Coffee,"73 Kilburn High Road, London",51.5375791,-0.1932721
Costa Coffee,"203 West Hampstead Mews, London",51.547849,-0.1912139
Costa Coffee,"210 Haverstock Hill, London",51.5510173,-0.1653073
Costa Coffee,"55 Baker Street, London",51.5189256,-0.1563294
Costa Coffee,"181 Camden High Street, London, Primrose Hill",51.53863,-0.1426455
Costa Coffee,"15 Regent Street, London",51.5086931,-0.1340999
Costa Coffee,"Unit 5, 311-318 High Holborn, London",51.5181647,-0.1129876
Costa Coffee,"134-138 Borough High St, London",51.5025199,-0.0923941
Costa Coffee,"Palace Gardens, Enfield Town, Enfield",51.6511523,-0.0840199
Costa Coffee,"288 High Street, Enfield",51.6477205,-0.0478881
Costa Coffee,"Leytonstone Tesco, Gainsborough Road, London",51.5715808,0.0133878
Costa Coffee,"1 Western Gateway, London",51.5080101,0.0294031
Costa Coffee,"Studley Dr, Ilford",51.5758762,0.0467227
Costa Coffee,"230 High Road, Loughton",51.6482846,0.0557618
Costa Coffee,"Woolwich New Rd, London",51.49029,0.069363
Costa Coffee,The Mall Exchange Shopping Centre,51.5591646,0.0726082
Costa Coffee,"35 Broad Walk, Harlow",51.769689,0.0946997
Costa Coffee,"189 High Street, Epping",51.6991222,0.1110574
Costa Coffee,"140-148 Collier Row Road, Romford",51.5979896,0.1557039
Costa Coffee,"83 South Street, Romford",51.5765362,0.1824344
Costa Coffee,"Bryant Ave, Romford",51.5932333,0.2180552
Costa Coffee Buckhurst Hill,"48 Queen's Road, Buckhurst Hill",51.625238,0.044141
County Hotel,"8-11 Upper Woburn Place, London",51.5263893,-0.1295179
CRATE Brewery & Pizzeria,"7, Queen's Yard, London",51.542905,-0.022219
Creams Southall,"154 The Broadway, Southall",51.5123443,-0.3830345
Creative Biscuit,"61 George Lane, London",51.5914802,0.0285263
Crystal Cafe,"44 Chingford Mount Road, London",51.6097041,-0.0173803
Dada Cafe,"Station Road, Epping",51.6978481,0.1106831
Daisy's in the Park,"Pinner Memorial Park, Pinner",51.592415,-0.386643
Danlee Catering,"The Business Innovation Centre, 1 Electric Avenue, Enfield",51.674554,-0.022126
Dannys Pie & Mash,"100 High Street, Ilford",51.591167,0.0830784
Daylesford Notting Hill W11,"208-212 Westbourne Grove, London",51.5145345,-0.2004594
Delisserie,"88 The Broadway, London",51.6157215,-0.2448342
Department of Coffee and Social Affairs,"3 Lowndes Court, London",51.5135825,-0.1389791
Dishoom,"12 Upper St Martin's Lane, London",51.5124413,-0.1268335
Dom's Place,"199 Lower Clapton Road, London, Clapton",51.5564118,-0.0557841
E5 Bakehouse,"395, Mentmore Terrace, London",51.541219,-0.0575974
EAT,"1 Stratford Place, Westfield Stratford City, London",51.5429338,-0.0045737
EAT - Canary Wharf,"Unit 1, Canada Place, Canary Wharf, London",51.5050177,-0.0189698
EAT - St Mary Axe,"Exchequer Court, 33 Saint Mary Axe, London",51.515105,-0.0804885
Embankment Cafe,"Victoria Gardens, 25 Victoria Embankment, London",51.5084096,-0.1211808
Epsilon Hotel,"27A Romford Road, Stratford, London",51.542436,0.0066774
Esquires Coffee,"Unit 12, St. Georges Shopping Centre, St. Ann's Way, Harrow",51.5814461,-0.3393209
Esquires Coffee Houses Harlow,"5a, Civic Walk, Harlow",51.7677372,0.0949824
Ffiona's,"51 Kensington Church Street, London",51.5040798,-0.1927753
Flynn's Bar & Diner Ealing,"128 Broadway, London",51.5099826,-0.3265996
Fratelli Deli Cafe,"23 The Broadway, London",51.6144179,-0.2483424
Fred and Dougs,"148 High Street, Epping",51.6986596,0.1112389
Freshwaters,"38 The Broadway, Loughton",51.6474842,0.0835446
Friends Coffee House,"749 Barking Road, Newham, London",51.5303304,0.0376225
GAIL's Artisan Bakery,"282-284 Chiswick High Road, London",51.4926121,-0.2599171
Gana Cafe,"24 Ealing Road, Wembley",51.5512113,-0.2989332
Gelato Mio,"138 Saint John's Wood High Street, London",51.533862,-0.1709367
Gerry's Kitchen,"2, Gerry Raffles Square, London",51.542758,0.000451
Green Owl Cafe and Deli Buckhurst Hill,"44 Queen's Road, Buckhurst Hill",51.6251814,0.0442689
H R Higgins (Coffee-Man) Ltd,"79 Duke Street, London",51.5131115,-0.1506704
Happy Grow Garden Centre,"Thornwood Common, High Road, Thornwood, Epping, Essex",51.692369,0.0960103
Harris + Hoole,"The Market House, High Street, Uxbridge",51.546099,-0.4795471
Hazev Canary Wharf,"Discovery Dock West, 2 South Quay Square, London",51.5014878,-0.0191633
Hornbeam Community Cafe & Environment Centre,"458 Hoe Street, London",51.5760384,-0.0150414
Indulge,"209-211 Marsh Road, Pinner",51.5924206,-0.3822764
Iver Flowerland Garden Centre,Norwood Lane,51.5294775,-0.5175753
Jenny's,"12 Terminus Street, Harlow",51.7707581,0.0951811
Johnston's,"626 Lea Bridge Road, London",51.5755598,-0.0124243
K T Colombo Taste,"5 Bilton Road, Greenford",51.5392412,-0.3062921
Kavah,"73 New Broadway, London",51.5125574,-0.3081543
Ken's Cafe,"467 Green Street, Newham, London",51.5332974,0.0365711
Kenton Lane Caf??,"237 Kenton Lane, Harrow",51.5960356,-0.3128631
Kitchen & Pantry,"216-218 Chiswick High Road, London",51.4927645,-0.2573634
Kwik-IT Catering,"244 Ruislip Road, London, Greenford",51.532536,-0.3683021
Lancaster Hall Hotel,"35 Craven Terrace, London",51.5131819,-0.179183
Latchett Evangelical Church,"Latchett Road, Woodford, South Woodford",51.5963222,0.0330978
Latton Coffee Stop,"Latton Bush Business Centre, Harlow",51.753107,0.10762
Le D??lice,"114 Hoe Street, London",51.5880663,-0.0208685
Lemongrass Kitchen,"Unit 5 South Quay Plaza, 185 Marsh Wall, London",51.5003841,-0.0173211
LEON,"S3, Brent Cross Shopping Centre, London",51.576844,-0.224033
L'Escargot Restaurant,"48 Greek Street, London",51.5139794,-0.1309288
Log Cabin,"47 London Road, Abridge, Romford",51.6497095,0.1162846
Londek Cafe,"198 The Grove, London",51.5453278,0.0043707
London Lodge Hotel,"134-136 Lexham Gardens, London",51.4956454,-0.1950566
London Street Brasserie,"Hotel Indigo, 16 London Street, London",51.5151948,-0.1740799
Look mum no hands!,"49 Old Street, London",51.524168,-0.096889
Lowry & Baker,"339 Portobello Road, London",51.521271,-0.210328
Manicomio Gutter Lane,"6 Gutter Lane, London",51.5154948,-0.0953674
Manon Cafe,"110 Fleet Street, London",51.5142786,-0.1050636
Mario's Cafe,"30 Sterling Way, Silver Street, London",51.6145552,-0.0661471
Market Cafe,"151 High Street, London",51.5835338,-0.0262504
Mediterranean Cafe & Sandwich Bar,"681 Romford Road, London",51.5506116,0.0468828
Meds,"37 Burdett Road, London",51.522864,-0.0339749
Millfield Arts Centre,"Silver Street, London",51.6163893,-0.0814628
Miss Ellie's Subs - Barking Station,"7 Station Parade, Barking",51.538359,0.0797666
Moiety Lounge,"273 Pinner Road, Harrow",51.5828149,-0.3540516
Molens Cafe and Brasserie,"209D High Road, Loughton",51.6468271,0.0546967
Momtaz Shisha Cafe,"831 Uxbridge Road, Hayes",51.5258404,-0.4370668
Monmouth,"2 Park Street, London",51.5055063,-0.091462
Moroccan Gardens,"73 Belgrave Road, Ilford",51.5624579,0.0636614
Morrisons,"299 Uxbridge Road, Hatch End, London",51.6080712,-0.3648589
Morrisons,"Trident Point, 19 Pinner Road, Harrow",51.5804484,-0.3425573
Morrisons,"King Street, London",51.508449,-0.273065
Morrisons,"15 The Grove, London",51.543094,0.005031
Morrisons,"Wood Lane, Beacontree Heath, Dagenham",51.559434,0.14843
Morty & Bob's,"Second Floor, Netil House, 1 Westgate Street, Hackney, London",51.537582,-0.057783
Myddelton House Gardens,Bulls Cross,51.674617,-0.059891
New Market Cafe,"9 The Rows, Harlow",51.7710127,0.0927324
Newens The Original Maids of Honour,"288 Kew Road, Richmond",51.4808019,-0.2884071
Nordic Bakery,"37B New Cavendish Street, London",51.519104,-0.149564
Obic?ÿ,"35 Bank Street, London",51.5026733,-0.0201677
OKO Shisha Lounge,"361 Ley Street, Ilford",51.564901,0.083177
Orange Tree Pub & Kitchen - Romford,"Havering-atte-Bower, Romford",51.6136928,0.1809985
P & H Pancakehouse,"64 Chingford Mount Road, London",51.610347,-0.017693
Papas Cappuccino Bar,"65 Harvey Centre Approach, Harlow",51.7690345,0.0930869
Paper Dress Vintage,"352 Mare Street, London",51.5473728,-0.0545754
Park Lounge,"The Milestone Hotel, 1-2 Kensington Court, London",51.5020032,-0.1866611
Parlour,"5 Regent Street, London",51.5287216,-0.2166506
Patisserie Valerie,"27 Kensington Church Street, London",51.5034117,-0.1918981
Patisserie Valerie,"215 Brompton Road, London",51.4972398,-0.1675012
Patisserie Valerie,"15, York House, Great Cumberland Place, London",51.5142666,-0.1595882
Patisserie Valerie,"Spitalfields Arts Market, 37 Brushfield Street, London",51.5191887,-0.0774749
Pembroke Lodge,"Richmond Park, Richmond",51.442481,-0.294449
Peppercorn,"14 Empire Way, Wembley Park",51.5611776,-0.2828233
Phillers Sandwich Bar,"1 Acorn Mews, Harlow",51.757362,0.114335
Piccola Italia Ealing,"21 The Green, London",51.5107313,-0.3052534
Pie,"122 High Road, Loughton",51.6448278,0.0521929
Pinks Cafe Bar,"20/21 Wych Elm, Harlow",51.7719998,0.0903343
Pinto Thai Kitchen,"46 High Street, London",51.5067856,-0.2660822
Planet Organic,"10 Devonshire Square, London",51.5167334,-0.0785046
Popiandy's Cafe Restauarnt,"The Pavillions, 20-21 Market Square, Uxbridge",51.5473878,-0.4813328
Popins Restaurant,"1 Western Road, Romford",51.5767264,0.1828948
Poppy's Cafe,"309 High Street, Epping",51.7009442,0.1138199
Pret A Manger,"7 West Ferry, Canary Wharf",51.5061033,-0.0257374
PROFESSIONAL UK LTD,"1 Court Parade, East Lane, Wembley",51.562231,-0.318517
Provender Cafe Bistro,"17 High Street, London, Wanstead",51.5797632,0.0241173
PUMPKIN CAFE,"110 Fortune Green Road, London",51.5553487,-0.1965166
Rainforest Cafe,"20 Shaftesbury Avenue, London",51.510856,-0.133633
Red Lounge,"14 Roding Lane South, Ilford",51.5773664,0.0452343
Red Onion Cafe,"95 High Street, Ruislip",51.5739058,-0.4237664
Rose Hill Cafe,"272 Higham Hill Road, London",51.5955876,-0.034801
Rowans,"135-137 High Street, Ilford",51.5922649,0.0835838
Royal Court Bar&Kitchen,"Royal Court Theatre, 50-51 Sloane Square, London",51.4925597,-0.1565561
Royal National Hotel,"38-51 Bedford Way, Russell Square, London",51.5237171,-0.1271337
Royal Oak,"219 Kings Head Hill, London",51.6350005,-0.0110281
San Marino Coffee,"668 High Road Leytonstone, London",51.5686288,0.0114344
Scandinavian Kitchen,"61 Great Titchfield Street, London",51.5187901,-0.1408183
Scoffs Sandwich Bar,"17 Station Road, London",51.631022,0.002578
Simply Scrumptious,"9 Flask Walk, London",51.556606,-0.1776516
Smith's Garden Centre,"95 Oxford Road, London",51.555581,-0.491133
Smollensky's,"1 Reuters Plaza, London",51.504159,-0.019506
Snakes & Ladders,"Syon Park, London Road, Brentford",51.480465,-0.31032
Snowflake Luxury Gelato,"43 Westbourne Grove, London",51.515482,-0.1902424
Soho Joe,"22-25 Dean Street, London",51.5142196,-0.1327779
Soul Stop Cafe,"154 George Lane, London",51.5935955,0.0250559
south park cafe,"153 Green Lane, Ilford",51.5590213,0.0900497
Squires Cafe & African Restaurant,"6 Beckton Road, London",51.5177464,0.0135537
Squires Garden Centre,"Common Road, Stanmore",51.6223817,-0.3458248
Sri Nam,"10 Cabot Square, London",51.5057311,-0.0218094
St John's Smith Square,"Smith Square, London",51.4959479,-0.127063
Staples Cafe,"7 Adrian Avenue, London",51.5723452,-0.2309599
Starbucks,"Unit, 201 High Street, Uxbridge",51.5458691,-0.4783658
Starbucks,"19-21 High Street, Pinner, London",51.5941592,-0.3812222
Starbucks,"Saint Anns Shopping Centre, Saint John's Road, Harrow",51.5813015,-0.3386693
Starbucks,"81-, 83 Station Road, London",51.613278,-0.2768316
Starbucks,"200 Hammersmith Road, London",51.4931702,-0.2216308
Starbucks,"25A Kensington High Street, London",51.5022733,-0.1885483
Starbucks,"17-, 35 Gloucester Road, London",51.4980432,-0.1834656
Starbucks,"22-23 Princes Street, London",51.5143859,-0.1425628
Starbucks,"11+12, Jubilee Place, London",51.5031054,-0.0187527
Starbucks,"46 Broadway, London",51.5411414,0.0011798
Starbucks,"199 High Street, Epping",51.6993285,0.1112523
Starbucks Coffee,"Sheraton Skyline Hotel, A4 Bath Road, Hayes",51.4814239,-0.436615
Starbucks Coffee,"Harlequin Centre The Harlequin Shopping Centre, Watford",51.6551794,-0.3934135
Starbucks Coffee,"227 Portobello Road, London",51.5168271,-0.205942
Starbucks Coffee,"76-78 Holland Park Avenue, London",51.5072826,-0.2057479
Starbucks Coffee,"7-, 9 Golders Green Road, London",51.5717633,-0.1959318
Starbucks Coffee,"186 Earls Court Road, London",51.4930306,-0.1944465
Starbucks Coffee,"201A West End Lane, London",51.5477447,-0.1911987
Starbucks Coffee,"7 Church Street, Enfield",51.6522817,-0.0834371
Starbucks Coffee,"Black Lion House, 45 Whitechapel Road, London",51.5170265,-0.0680942
Starbucks Coffee,"56A - 58 High Street, London",51.5761745,0.0274205
Starbucks Coffee,"1-15 The Brewery, Romford",51.5762642,0.1811735
Station Cafe,"795 London Road, Hounslow",51.4707694,-0.3536811
Steve's Breakfast Box,"3 Britannia Road, Waltham Cross",51.6842751,-0.0235857
Sudbury Cafe,"20 Watford Road, London",51.5564968,-0.3168255
Sugar Mill Desserts,"3 Lakeside Way, Wembley",51.5577601,-0.2848067
Sunshine Cafe,"397 Northolt Road, Harrow",51.5604819,-0.3581057
Take a Break,"244 Oxlow La, Dagenham",51.551038,0.15482
TAP Coffee No.114,"114 Tottenham Court Road, London",51.523307,-0.137212
Tasty Bolle Cafe,"34 North Street, Romford",51.5793863,0.1795493
Taylor St Baristas,"1A New Street, London",51.517504,-0.080009
Taylor St Baristas,"8 South Colonnade, London, Canary Wharf",51.5048147,-0.0218717
Teas Me,"129A Ladbroke Grove, London",51.5162364,-0.2094594
Tesco Cafe,"Church Langley Way, Harlow",51.7660163,0.1324283
Thames Innovation Centre,"2 Veridion Way, Erith",51.495932,0.1422437
The Atrium Woodford,"Inmans Row, Woodford Green",51.6141102,0.0262391
The Bermondsey Square Hotel,"Bermondsey Square, Tower Bridge Road, London",51.4977051,-0.0814154
The Blue Rooms Cafe,"156 Ongar Road, Abridge",51.657029,0.144635
The Breakfast Club,"33 D'Arblay Street, London",51.5147287,-0.135393
The Breakfast Club,"31 Islington high Street, London",51.5351062,-0.1037338
The Buffalo,"4 Southbury Road, Enfield",51.6524154,-0.0803107
The Bungalow Cafe,"49 Spratt Hall Road, London",51.5771946,0.021271
The Canteen Cafe,"127 High Road, London",51.5963158,0.0214144
The Capital Hotel,"22-24 Basil Street, London",51.500036,-0.161589
The Chocolate Room,"324 Station Road, Harrow",51.5807973,-0.3335973
The Coffee Shop,"11 The Broadway, Wembley",51.5625991,-0.2921866
The Coffeelink,"Waltham Cross Railway Station, Station Approach, Waltham Cross",51.6851232,-0.0266134
The Craft Cabin E4,"57 Station Road, London",51.6314765,0.0044818
The Dolls House On The Hill,"44 High Street, Harrow",51.5719658,-0.3385224
The Don Restaurant,"The Courtyard, 20 Saint Swithin's Lane, London",51.511823,-0.0890573
The Gallery Cafe,"St. Margarets House Settlement, 21 Old Ford Road, London",51.529874,-0.05447
The Garden Community Cafe,"7 Cundy Road, Newham, London",51.5111108,0.0329965
The Larder at Butlers Retreat,"12 Ranger's Road, London",51.6344691,0.0184798
The Larder Wanstead,"39 High Street, London",51.5791106,0.0251585
The Market Tavern,"Western International Market, Hayes Road, Southall",51.4966027,-0.4021796
The Merchant Tea & Coffee Co,"115-123 High Street, Barkingside",51.5920218,0.0832523
The Mount Street Deli,"100 Mount Street, London",51.5096884,-0.1505157
The National Archives,"Bessant Drive, Kew",51.481465,-0.280071
The Orange Couch,"86 Victoria Road, Ruislip",51.5712766,-0.4118829
The Orangery at Kew Gardens,"Kew Gardens, Richmond",51.4832263,-0.2933852
The Orangery Restaurant,"Kensington Palace, Kensington Gardens, London",51.506545,-0.187755
The Pantry,"12 Station Road, Hayes",51.5066191,-0.4191422
The Pantry Cafe,"357 High Street, London",51.5383051,-0.0012947
The Pink Simba,"215 Kenton Road, Harrow",51.583393,-0.3142669
THE QUEENS ROOMS Grill / Cafe/ Wine Bar,"69 Queen's Road, Buckhurst Hill",51.6255013,0.042714
The Slug And Lettuce,"219-221 High Street, Uxbridge",51.5446765,-0.4754682
The Squadron,North Weald Bassett,51.7215712,0.1496793
The Table Caf??,"83 Southwark Street, London",51.5055067,-0.0997138
The Union Bar & Grill,"4 Sheldon Square, London, Paddington",51.5195004,-0.1798736
The V&A Cafe,"Cromwell Road, London",51.4966458,-0.1735345
The Verde Cafe,"88 High Street, Epping",51.6969891,0.1090233
The View Tube,"The Greenway, Marshgate Lane, London",51.5353432,-0.0131133
The Wallace Restaurant,"The Wallace Collection, Hertford House, Manchester Square, London",51.5175861,-0.1533964
The Wolseley,"160 Piccadilly, London",51.5074095,-0.1409203
Titanic Cafe,"124 Cranbrook Road, Ilford",51.5623219,0.0682707
Todd Sloane,"71 High Street, Epping",51.6967656,0.1076289
Tooty Fruity Ltd,"Loughton Station Station Approach, Loughton",51.6415706,0.0552791
Tricostar,"1 Electric Avenue, Enfield",51.6744819,-0.0219076
Twist Dessert Lounge,"374 Pinner Road, Harrow, North Harrow",51.5867683,-0.3615381
USSR,"679-691 High Road Leyton, London",51.5713896,-0.0086143
Vine,"207a High St, Waltham Cross",51.7023892,-0.0351651
Volunteer,"Honey Lane, Waltham Abbey",51.6781652,0.0400142
Vortex Downstairs,"11 Gillett Street, London",51.5488516,-0.0767296
Wild Bean Caf??,"London Road, North Weald Bassett",51.749577,0.134647
Wild Bean Cafe,"Bp Connect, Southern Way, Harlow",51.7537742,0.107165
Wild Food Cafe,"1st Floor, 14 Neal's Yard, Covent Garden",51.514466,-0.126376
Will To Win,"Culmington Road, Ealing, Greater London, Ealing",51.505923,-0.3094
Will to Win Regents Park Tennis Centre,"York Bridge, Inner Circle, London",51.525577,-0.153803
Wilton Way Cafe,"63 Wilton Way, London",51.5457006,-0.061426
Wilton's Music Hall,"1 Graces Alley, London",51.5107013,-0.0668967
Wings Caf??,North Weald,51.7200293,0.1452625
Wonder Cafe & Grill,Long Lane,51.532628,-0.453121
Workshop Coffee,"27 Clerkenwell Road, London",51.5224114,-0.1023542
Yumchaa Soho,"45 Berwick Street, London",51.5151937,-0.1360683
Agora Amusements,"297 Kentish Town Road, London",51.549366,-0.1412549
Alberico At Aspinalls,"27-28 Curzon Street, London",51.5063559,-0.1494503
Alex Poker,"34 Ashworth Place, Harlow",51.7669152,0.1398328
Aspers Casino,"Montfichet Road Olympic Park, 312 Montfichet Road, The Loft, London",51.543107,-0.006102
Big Gains No Pains Ltd,"Tenby Avenue, Harrow",51.5989927,-0.3159161
Caesars Entertainment UK,"55 Baker Street, London",51.5190609,-0.1564926
Cardsharp Casino,"36 Heathway, Dagenham",51.5335846,0.1484912
Cashino,"152 Putney High Street, London",51.4618219,-0.2168442
Cashino,"Kings Wines, 211 Whitechapel Road, London",51.5188939,-0.0622275
Casino,"108 Kilburn High Road, London",51.539372,-0.19469
Casino Cosmic,"129A Hoe Street, London",51.585743,-0.019443
Casino Knight,"177 Finchley Road, London",51.5456445,-0.1787697
casino Richess,"Edgware Road, Hyde Park, London",51.519197,-0.168374
Casino Whale,"9 Strand-On-The-Green, London",51.4847614,-0.278903
Casinoslotmachines.Eu,"17 Bowater Road, London",51.4940358,0.0423027
Caxnino,"211 Whitechapel Road, London",51.5188654,-0.0622098
City Slots,"371 North End Road, London",51.4839402,-0.2011985
City Slots,"108 Camden High Street, London",51.5374586,-0.1411502
Connoisseur Club,"2A Kensington High Street, London",51.5027022,-0.1882164
Crown Aspinalls,"27-28 Curzon Street, London",51.5064198,-0.1494642
Crystal Casino London,"69 Tottenham Court Road, London",51.520326,-0.134438
Empire Casino,"5-6 Leicester Square, London",51.510867,-0.130344
Family Leisure,"5 Wardour Street, London",51.5114795,-0.1321041
Family Leisure Ltd,"23 Gerrard Street, London",51.5115122,-0.1320423
First Class Fun Casino Events,"72 New Bond Street, London",51.5138046,-0.1457878
Gala Casino,"61-66 Russell Square, London",51.5218237,-0.1242399
Gala Coral Group,"2nd, 34 Saint James's Street, London",51.507275,-0.139551
Gaming Realms PLC,"1 Valentine Place, London",51.501587,-0.104951
Gamtec International Ltd,"1 Link Way, Denham, Uxbridge",51.5822643,-0.496232
Genting Casino Chinatown London,"93 - 107 Shaftesbury Avenue, London",51.512793,-0.130223
Genting Casino Cromwell Mint,"45 Cromwell Road, London",51.4952232,-0.1778841
Genting The Colony Club,"24 Hertford Street, London",51.5052622,-0.1497466
Grosvenor Casino Golden Horseshoe London,"79-81 Queensway, London",51.5122041,-0.1876476
Grosvenor Casino Piccadilly London,"3-4 Coventry Street, London",51.5104812,-0.1319138
Grosvenor Casino Russell Square London,"61-66 Russell Square, London",51.5219002,-0.123589
Grosvenor Casino St Giles,"262 Tottenham Court Road, London",51.5171929,-0.1307146
Grosvenor Casino The Barracuda London,"1 Baker Street, London",51.516601,-0.1554316
Grosvenor Casino The Gloucester London,"4-18 Harrington Gardens, London",51.4933647,-0.182941
Grosvenor Casino The Victoria London,"150-162 Edgware Road, London",51.5171346,-0.1652105
Grosvenor Casinos,"2A Kensington High Street, London",51.5014928,-0.1906573
John Boys Place,"206 Gunnersbury Avenue, London, Acton",51.4986933,-0.2825104
Leftfield Digital Ltd,"Castlewood House, 77-91 New Oxford Street, London",51.5164694,-0.1284481
Les Ambassadeurs Casino,"5 Hamilton Place, London",51.5043872,-0.1505799
Live Roulette,"43 Nelmes Way, Hornchurch",51.5763255,0.2270774
Lola's Underground Casino,"Cranbourn Street, London",51.511677,-0.129175
London Clubs International,"55 Baker Street, London",51.519149,-0.1566216
Maxims Casino Club,"1E Palace Gate, London",51.5013313,-0.1842442
Napoleons,"7 Leicester Square, London",51.5110045,-0.1302709
Napoleons Casino Leicester Square,"1 Leicester Square, London",51.5108356,-0.1306963
New Online Casino Ltd,"152 City Road, London",51.5272934,-0.0888966
Omanpx,"6 Edmund Hurst Drive, London",51.5156709,0.0683566
Palace Amusements,"37 Chapel Market, London",51.5337358,-0.1076509
Park Lane Club London,"22 Park Lane, London",51.5055869,-0.149932
Play 2 Win,"426 Edgware Road, London",51.5228451,-0.1738602
Play 2 Win,"1 Euston Road, London",51.5304039,-0.122625
Playboy Club London,"14 Old Park Lane, London",51.504662,-0.149412
Quicksilver,"32-36 Station Road, Hayes",51.5061094,-0.4192686
Quicksilver,"192 High Street, Hounslow",51.4689587,-0.3615667
Quicksilver,"164-168 Cricklewood Broadway, London",51.5568327,-0.215219
Quicksilver,"Clapham Junction Approach, 1 Saint John's Hill, Clapham Junction",51.4634038,-0.1683206
Quicksilver,"3 Seven Sisters Road, London",51.558146,-0.1191422
Quicksilver,"117 High Road, Wood Green",51.5933004,-0.1072174
Quicksilver,"9 High Road, London",51.5908416,-0.1040869
Quicksilver,"Elephant & Castle Underground, Unit 96 Shopping Centre, London",51.4943331,-0.0996766
Quicksilver,"281 Walworth Road, London",51.4876249,-0.0952222
Quicksilver,"38 Denmark Hill, London",51.4732487,-0.0933486
Quicksilver,"67 Kingsland High Street, London",51.5484739,-0.075541
Quicksilver,"2 Rye Lane, London",51.4732017,-0.0700033
Quicksilver,"475 High Road, London",51.5926012,-0.0699328
Quicksilver,"206 Southwark Park Road, Surrey Quays, London",51.4920896,-0.0644221
Quicksilver,"449-453 Bethnal Green Road, London",51.5273167,-0.0578306
Quicksilver,"387 Mare Street, London",51.5484842,-0.0553451
Quicksilver,"196 High Street, Walthamstow",51.584426,-0.0228599
Quicksilver,"96 Lewisham High Street, London",51.4625077,-0.0104523
Quicksilver,"12 Powis Street, London",51.4910251,0.0680641
Quicksilver,"2 Woolwich New Road, London",51.4905713,0.0692917
Quicksilver,"58 High Road, Ilford",51.5582912,0.0704445
Reels Casino Slots,United Kingdom,51.5139366,-0.4732463
Sagulls Lotto,"20-22 Bedford Row, London",51.5205064,-0.1161108
Silvertime Casino,"High Street, London",51.5358631,-0.2472071
Silvertime Casino,"10 Pembridge Road, London",51.5094112,-0.196978
Smart Live Casino,"233 High Holborn, London",51.5174634,-0.1194331
Smokin Aces,"Imperial House, Imperial Drive, Harrow",51.5762244,-0.3693189
Sportsman Casino,"Old Quebec Street, London",51.5141869,-0.1579346
Supercasino.com,"80 Silverthorne Road, London",51.4723012,-0.1459078
TCSJOHNHUXLEY Europe Ltd,"83 Victoria St, 4th Floor, London",51.4974533,-0.1350084
The Casino Experience,"1 Redston Road, London",51.5874045,-0.1321794
The Clermont Club,Uxbridge,51.5373333,-0.4873407
The Clermont Club,"44 Berkeley Square, London",51.5093524,-0.1464362
The Hippodrome Casino London,"Cranbourn Street, Leicester Square, London",51.511403,-0.128551
The Poker Room,"150 Edgware Road, London",51.5172409,-0.1655049
The Ritz Club,"150 Piccadilly, London",51.5072914,-0.1414323
UK expekt.com,"Colet Court, 100 Hammersmith Road, London",51.4937169,-0.216724
Oasis Church,"Oasis Church, Essex Road, Chadwell Heath, Romford",51.5683817,0.1211283
Saint Marks Church & Community Centre,"218 Tollgate Road, London",51.5158844,0.0557058
Food City,"308 Seven Sisters Road, London",51.5653637,-0.1031255
Bodgers of Ilford,"1-12 Station Road, Ilford",51.5590319,0.0705213
Karaoke Mic,"Harrow Road, Harrow",51.5522245,-0.3025833
Heal's,"196 Tottenham Court Road, London",51.5211364,-0.1346757
The Peanut Vendor,"6 Gunmakers Lane, Gunmakers Wharf, London",51.535249,-0.034246
Asda,"Forty Lane, Wembley",51.564732,-0.275725
Asda,"2-20 Western Road, London",51.528561,-0.270169
Asda Beckton Superstore,"Tollgate Road, London",51.5147501,0.0583956
Asda Dagenham Superstore,"Merrielands Crescent, Dagenham",51.5301435,0.1425287
Asda Isle of Dogs Superstore,"151 East Ferry Road, Isle Of Dogs",51.4940037,-0.0123694
Asda Leyton Mills Superstore,"Marshall Road, Leyton",51.5563882,-0.0090816
Asda Superstore,"Capitol Way off, Edgware Road, Edgware, Colindale",51.5939281,-0.2620121
BP,"Gunnersbury Avenue, London",51.5011069,-0.2859407
Morrisons,"Stirling Way, Borehamwood",51.644245,-0.255919
Morrisons,"327 Southbury Road, Enfield",51.6483428,-0.0587105
Morrisons,"6-, 7 Chingford Mount Road, Chingford",51.6076138,-0.0218771
Morrisons,"2 Twin Tumps Way, Thamesmead",51.5078023,0.105698
Tesco Extra,"Glencoe Road, Hayes",51.5245724,-0.3851813
Tesco Superstore,"Church Langley Way, Harlow",51.76605,0.132383
Richardson Stocktaking,"Hulse Avenue, Romford",51.5963611,0.1614638
Conrad London St. James,"22-28 Broadway, London",51.499452,-0.132925
Creation Dance Head Offfice,"55 Ickworth Park Road, London",51.5873266,-0.0336477
Heathrow Hotel Bath Road,"The Grove, Bath Road, Sipson, West Drayton",51.4818995,-0.4678104
Hotel Mercure London Bridge,"71-, 79 Southwark Street, London",51.5052581,-0.0991698
Hotel Novotel London Blackfriars,"46 Blackfriars Road, London",51.5050338,-0.1047245
Hotel Novotel London Tower Bridge,"10 Pepys Street, London",51.510644,-0.0773503
Hotel Novotel London Waterloo,"113 Lambeth Road, London",51.4943884,-0.118718
Hotel Pullman London St Pancras,"100, 110 Euston Road, London",51.5286903,-0.127973
International Hotel,"163 Marsh Wall, London",51.5019234,-0.0232247
LDG Fitness Centre,"891 High Road, Ilford, Chadwell Heath",51.5687363,0.1177974
London Bridge Hotel,"8-18 London Bridge Street, London",51.5052092,-0.0881615
London Marriott Hotel Marble Arch,"134 George Street, London",51.5164129,-0.1635826
Third Space Canary Wharf,"16-19 Canada Square, London",51.5045739,-0.0160521
The Artworks Elephant,"Artworks, Elephant Road, London",51.493044,-0.098674
Asda Living,"Unit 4a Tottenham Hale Retail Park, Broad Lane, London",51.5871092,-0.0610109
Norpar Flowers,"Norpar Flowers, Shonksmill Road, Navestock, Romford",51.662371,0.227295
Botwell Green Library,"Botwell Green Sports and Leisure Centre, East Avenue, Hayes",51.5084,-0.418273
Aloft London Excel,"One Eastern Gateway, Royal Victoria Dock, London",51.5084737,0.0352818
Blakes Hotel,"33 Roland Gardens, London",51.4892871,-0.1802815
Boston Manor Hotel,"146-152 Boston Road, London",51.503826,-0.333477
Bvlgari Hotel London,"171 Knightsbridge, London",51.5015314,-0.1627878
Danubius Hotel Regents Park,"18 Lodge Road, St. Johnƒ??s Wood, London",51.529257,-0.168358
Devonshire Hotel,"94 Station Lane, Hornchurch",51.557546,0.220174
DoubleTree by Hilton Hotel London - Marble Arch,"4 Bryanston Street, Marble Arch, London",51.514573,-0.15666
Durrants Hotel London,"32 George Street, London",51.5179386,-0.1529794
Grange St.Paul's Hotel,"10 Godliman Street, London",51.5127427,-0.0996662
Hendon Hall Hotel,"Ashley Lane, London",51.59465,-0.218949
Hilton London Paddington,"146 Praed Street, London",51.515632,-0.175737
Holiday Villa Hotel,"35-37 Leinster Gardens, London",51.5134908,-0.1839231
Hotel ibis London Barking,"Highbridge Rd, Barking",51.533821,0.071985
Hotel ibis London Docklands,"1 Baffin Way, London",51.5070692,-0.007037
Hotel Ibis London Earl's Court,"47 Lillie Road, London",51.4859323,-0.1995372
Hotel ibis London Elstree Borehamwood,"Elstree Way, Borehamwood, London",51.6599178,-0.2660179
Hotel ibis London Heathrow Airport,"London Heathrow Airport, 112 Bath Road, Hayes, London",51.481152,-0.430768
Hotel ibis London Shepherds Bush,"3-5 Rockley Road, London",51.5034373,-0.2200781
Hotel ibis London Stratford,"1A Romford Road, London",51.5423409,0.004423
Hotel ibis Styles London Excel,"272 283 Victoria Dock Road, London",51.5100385,0.0269996
Hotel ibis Styles London Southwark Rose,"43-47 Southwark Bridge Road, London",51.5057658,-0.0950524
Hotel Mercure,"1A Lexham Gardens, London",51.4950097,-0.1906239
Hotel Mercure London Paddington,"144 Praed Street, London",51.5161548,-0.1747891
Hotel Novotel London City South,"53-61 Southwark Bridge Road, London",51.5054827,-0.0951171
Hotel Novotel London Excel,"Royal Victoria Dock, 7 Western Gateway, London",51.5078109,0.0231
Hotel Novotel London Greenwich,"173-185 Greenwich High Road, London",51.4778583,-0.0137463
Hotel Novotel London West,"1 Shortlands, London",51.4919691,-0.2200977
Ibis,"Royal Victoria Dock, 9 Western Gateway, London",51.5079318,0.0225584
ibis Hotel London Wembley,"Pop In Commercial Centre, South Way, Wembley, London",51.555263,-0.285134
Kings Cross Inn Hotel,"9-11 Euston Road, London",51.5301101,-0.1227501
Le M??ridien Piccadilly,"21 Piccadilly, London",51.5094416,-0.1362508
London Marriott Hotel County Hall,"London County Hall, Westminster Bridge Road, London",51.5010096,-0.1191948
London Marriott Hotel Grosvenor Square,"Grosvenor Square, London",51.5126,-0.150848
London Marriott Hotel Kensington,"147c Cromwell Road, London",51.494332,-0.189925
London Marriott Hotel Maida Vale,"Plaza Parade, London",51.5356383,-0.1902423
Novotel London Heathrow Airport,"Cherry Lane, West Drayton, Heathrow",51.497429,-0.455932
Park Plaza Riverbank London,"18 Albert Embankment, London",51.4913716,-0.121421
Premier Inn,"Redbridge Lane East, Ilford",51.5771846,0.0444502
Premier Inn,"2 New Road, Dagenham",51.5312314,0.1488104
Premier Inn Barking,"Highbridge Road, Barking",51.5343255,0.0716893
Premier Inn Chingford,"8 Ranger's Road, London",51.634347,0.020839
Premier Inn Hayes Heathrow,"362 Uxbridge Road, Hayes",51.518396,-0.405512
Premier Inn Heathrow Airport Bath Road,"15 Bath Road, Hounslow",51.4801339,-0.424473
Premier Inn Heathrow Airport M4 J4,"Shepiston Lane, Hayes",51.496056,-0.44831
Premier Inn London Angel Islington,"18 Parkfield Street, London",51.534855,-0.105556
Premier Inn London Beckton,"1 Woolwich Manor Way, London",51.515149,0.060854
Premier Inn London Blackfriars,"1-2 Dorset Rise, London",51.5129617,-0.1052016
Premier Inn London City Old Street,"Corsham Street, London",51.527608,-0.087626
Premier Inn London City Tower Hill,"22-24 Prescot Street, London",51.5113209,-0.0717034
Premier Inn London County Hall,"County Hall, Belvedere Road, London",51.5026569,-0.1179126
Premier Inn London Docklands ExCeL,"Royal Victoria Dock, 2 Festoon Way, London",51.5084334,0.0389414
Premier Inn London Ealing,"Parkman Ltd, 22-24 Uxbridge Road, London",51.512844,-0.309887
Premier Inn London Edgware,"Burnt Oak Broadway, Edgware",51.6081094,-0.2768299
Premier Inn London Elstree Borehamwood,"Warwick Road, Borehamwood",51.6587874,-0.2549683
Premier Inn London Enfield,"Inova Park, 4 Solar Way, Enfield",51.6751417,-0.0194658
Premier Inn London Euston,"1 Duke's Road, London",51.52778,-0.128876
Premier Inn London Greenford,"Western Avenue, Greenford",51.5329308,-0.32236
Premier Inn London Greenwich,"43 Greenwich High Road, London",51.4758471,-0.0198567
Premier Inn London Hammersmith Hotel,"255 King Street, London",51.493089,-0.238527
Premier Inn London Hampstead,"215 Haverstock Hill, London",51.5515136,-0.167058
Premier Inn London Hanger Lane,"1-6 Ritz Parade, London",51.5289193,-0.2908861
Premier Inn London Harrow,"134A Kenton Road, London",51.5826623,-0.3169099
Premier Inn London Kensington Earl's Court,"11 Knaresborough Place, London",51.4936113,-0.1908388
Premier Inn London Kensington Olympia,"22-32 West Cromwell Road, London",51.4943019,-0.1971961
Premier Inn London Kew Bridge,"52 High Street, Brentford",51.4849421,-0.3008069
Premier Inn London Kings Cross,"26-30 York Way, London",51.532001,-0.122086
Premier Inn London Leicester Square,"Queens House, 1 Leicester Square, London",51.5110449,-0.1301835
Premier Inn London Putney Bridge,"3 Putney Bridge Approach, London",51.4680065,-0.2108071
Premier Inn London Richmond,"136-138 Lower Mortlake Road, London",51.4667334,-0.2908344
Premier Inn London Southwark Borough Market,"Bankside, 34 Park Street, London",51.5071442,-0.0928705
Premier Inn London Stratford,"Westfield Stratford City, 9 Montfichet Road, London",51.5441274,-0.0091541
Premier Inn London Tower Bridge,"159 Tower Bridge Road, Southwark, London",51.499392,-0.079239
Premier Inn London Victoria Hotel,"82 - 83 Eccleston Square, London Victoria",51.4930979,-0.1428267
Premier Inn London Waterloo,"85 York Road, London",51.501748,-0.116486
Premier Inn London Wembley Stadium,"151 Wembley Park Drive, Wembley",51.562782,-0.281076
Premier Inn Loughton Buckhurst Hill,"High Road, Buckhurst Hill",51.625302,0.032313
Premier Inn Romford Central,"Mercury Gardens, Romford",51.5775638,0.1867596
Premier Inn Romford West,"Whalebone Lane North, Romford",51.5801211,0.1406948
Premier Inn Ruislip,"Ickenham Road, Ruislip",51.5731034,-0.4312343
Premier Inn Waltham Abbey,"Sewardstone Road, Waltham Abbey",51.6684478,0.0030953
Premier Inn Watford Central,"Timms Meadow, 69 Water Lane, Watford",51.654399,-0.387586
Premier Inn Watford Croxley Green Hotel,"2 Ascot Road, Watford",51.6514951,-0.4240602
Radisson Blu Edwardian Bloomsbury Street Hotel,"9-13 Bloomsbury Street, London",51.517605,-0.1276229
Radisson Blu Edwardian Mercer Street,"20 Mercer Street, London",51.5139527,-0.1271151
Richmond Park Hotel,"3 Petersham Road, Richmond",51.457735,-0.305121
Saint Georges Hotel,"Regent Street - London, London",51.5180176,-0.1426686
Sheraton Grand London Park Lane,"Piccadilly, London",51.5047721,-0.1472908
Sheraton Heathrow Hotel,"West Drayton, Heathrow Airport, West Drayton",51.4835858,-0.4812202
Sheraton Skyline Hotel London Heathrow,"Heathrow Airport, Bath Road, Hayes",51.4815492,-0.436535
The Greenwich Hotel London,"Catherine Grove, London",51.474493,-0.019535
The Montague on the Gardens,"15 Montague Street, London",51.520181,-0.1256957
The Petersham Hotel,"Nightingale Lane, Richmond",51.4509494,-0.2994632
The Richmond Gate Hotel,"152-158 Richmond Hill, Richmond",51.451307,-0.296684
The Rockwell,"181-183 Cromwell Road, London",51.494597,-0.1929396
The Savoy,"Strand, London",51.5101389,-0.1204211
The Wesley Euston Hotel & Conference Venue,"81-103 Euston Street, London",51.52674,-0.135865
The Westbridge Hotel- Stratford London,"335-337 High Street, London",51.5374279,-0.0022879
Thistle Hyde Park Hotel,"90-92 Lancaster Gate, London",51.5112451,-0.1808938
W London - Leicester Square,"10 Wardour Street, Leicester Square, London",51.5108676,-0.1314979
Domino's Pizza,"13 West Gate, Harlow",51.770161,0.092492
Domino's Pizza - London - Enfield Wash,"630 Hertford Road, Enfield Wash",51.6705182,-0.0410309
Domino's Pizza - London - Woodford Green,"1 Jubilee Parade, Snakes Lane East, Woodford Green",51.6075778,0.0351806
Gostosa,"159 High Street, London",51.534824,-0.242673
Ni Hao Restaurant,"105 Wembley Park Drive, London",51.562018,-0.28281
Pandan Thai Kitchen,"1057 Finchley Road, London",51.5803413,-0.1986146
Papa John's Pizza,"42 Joel Street, Northwood Hills",51.6015594,-0.4096617
Papa John's Pizza,"4 Mandeville Road, Northolt",51.545019,-0.372943
Papa John's Pizza,"177 West End Lane, London",51.546403,-0.191385
Papa John's Pizza,"61 Old Church Road, London",51.6189901,-0.0171195
Papa John's Pizza,"35 High Street, London",51.5791967,0.0250712
Papa John's Pizza,"146 Barking Road, London",51.5312902,0.0449211
Papa John's Pizza,"268 High Road, Loughton",51.6498637,0.0570768
Papa John's Pizza,"423 High Road, Ilford",51.5616052,0.0852191
Papa John's Pizza,"297 Heathway, Dagenham",51.5426802,0.1476819
Pizza Hut,"254 High Road, Harrow",51.603128,-0.3385143
Pizza Hut Delivery,"7 Walm Lane, London",51.547947,-0.2238585
Pizza Hut Delivery,"3 Rex Parade, Snakes Lane East, Woodford Green",51.6079635,0.0371609
Pizza Hut Delivery,"393 Barking Road, London",51.5332961,0.0550739
Pizza Hut Delivery,"339 Valence Avenue, Dagenham",51.5590587,0.1302825
Pizza Hut Delivery,3 Chase Cross Road,51.5997,0.1639188
Acha Halal Chinese,"1 Ealing Road, Glenmore Parade, Wembley",51.5420647,-0.2974488
Barracuda,"1 Headstone Drive, Harrow",51.5925676,-0.345524
Bella Naples,"83 High Road, London",51.5945206,0.0220256
Bhangra Beat,"49 Chigwell Rd, South Woodford",51.5905492,0.0339035
Brilliant Restaurant,"72-76 Western Road, Southall",51.5005059,-0.3877339
Caspian's Grill House,"Market House, 2 The Rows, Harlow",51.7713675,0.0925428
Catch Fish Restaurant,"147 Queen's Road, Buckhurst Hill",51.6260372,0.0375222
China Grill,"140 Cranbrook Road, Ilford",51.5625264,0.0681256
Cod Black Opps,"68 Ashworth Place, Harlow",51.7669152,0.1398328
Everest Lounge Ltd,"60 Peel Road, Harrow",51.5941926,-0.3321058
Eye 2,"159a High Road, Loughton",51.6445662,0.0526832
Fabs Chicken and Pizza,"14 Broadwalk, Harrow",51.5871689,-0.3625344
Firecracker,"44 Horseferry Road, London",51.4949909,-0.1271273
Fish'n'Chick'n,"6 Prentice Place, Harlow",51.7580069,0.1332757
Flower Drum Chinese Restaurant,"16 Market Street, Watford",51.6551298,-0.397802
Food Republic,"Unit 42 & 43 Silverthorne Road, London",51.4733296,-0.1439283
Fortune Inn,"14 London Road, Barking",51.5382311,0.0784047
Gandhis,"35 Grays Inn Road, London",51.5215441,-0.1138189
Garden Of India,"12-13, North House Bush Fair, 13 North Grove, Harlow",51.757533,0.112243
Hana,"8 Chamberlayne Road, London",51.5304143,-0.2164485
Hemalaya Tandoori Restaurant,"178 The Grove, London",51.5446536,0.0042999
Hillside Tandoori Restaurant,"128 Church Hill, Loughton",51.6550651,0.0655677
Hundred Degrees UK Ltd,"102-108 Pinner Road, Harrow",51.581336,-0.348317
Itsu,"10-11, Broadgate Arcade, 155 Bishopsgate, London",51.518902,-0.079912
Jalalabad 2 Restaurant,"992-994 Eastern Avenue, Ilford",51.5778767,0.0997
Long Ling,"15 Forest Drive, Theydon Bois, Epping",51.6721691,0.1013286
Maxim Ealing,"153-155 Northfield Avenue, London",51.5024466,-0.3160786
Moonlight Tandoori,"Staple Tye Mews, Perry Road, Harlow",51.7529981,0.0900602
Mr Chan's,"36 Watford Rd, Wembley",51.5569282,-0.3171106
New China,"57 High Street, Epping",51.6965076,0.1072949
Nicks Fish Bar,"52 Pyrles Lane, Loughton",51.6565315,0.0764818
Nonna Rosa III,"119 High Street, Uxbridge",51.5486278,-0.4813232
Oriental Chef,"78 Snakes Lane East, Woodford, Woodford Green",51.6078979,0.0364468
Phoenix Freight Logistics. T/A On a Mad 1,"312 High Street, London",51.5384904,-0.0016892
Pret A Manger,"155-166 London Wall, London",51.5172614,-0.0879791
Prezzo,"36-38 High Street, Pinner",51.59414,-0.3804358
Prezzo,"236 High Street, Epping",51.7005784,0.1136519
Rajdoot,"59 Windmill Hill, Ruislip",51.574112,-0.413405
Refill Eaterie,"500A Brixton Road, London",51.4619222,-0.1157099
Saffron Lounge,"52 Bridge Street, Pinner",51.5953822,-0.3842467
Sichuan Restaurant,"Millenium Leisure Park, Bugsby's Way, London",51.4904068,0.012137
Spicy Basil,"165 Kilburn High Road, London",51.540917,-0.19696
Spicy Food Plus,"83 Wilton Road, London",51.4924239,-0.140002
Star of India,"875 High Road Leytonstone, London, Leytonstone",51.5703615,0.0139904
Subway,"The Arena, Stockley Park, Uxbridge, London",51.5121497,-0.4445572
Subway,"54 Broadway, West Ealing, London",51.5106021,-0.3223013
Subway,"1, 260 Neasden Lane, London",51.5594286,-0.2494845
Subway,"The Mall, Unit F2, 45 Selbourne Walk, Walthamstow",51.5828671,-0.0240227
Subway,"95 Cranbrook Road, Ilford",51.5610695,0.0691437
Subway,"Vicarage Field Shopping Centre, Ripple Road, Barking",51.5387996,0.0809715
Subway,"Unit 11 Staple Tye Shopping Centre, Harlow",51.7532063,0.0920175
Subway,"29 East Gate, Harlow",51.7709042,0.0943387
Tao Peking,"158-160 High Street, Ruislip",51.5727629,-0.4231288
Tapas Bar at Whole Foods Market,"Barkers Shopping Arcade, 63-97 Kensington High Street, London",51.5014519,-0.1906153
The Belgian Food Company,"369 Oxford Street, London",51.514235,-0.1487864
The Mayfair Chippy,"14 North Audley Street, London",51.5131559,-0.153251
The Orient Noodle Bar,"139 Church Elm Lane, London",51.5399697,0.1564849
The Yellow Chilli Lounge,"Watersplash Lane, North Hyde Road, Hayes",51.497724,-0.412476
Theydon Bois Balti House Tandoori,"Coppice Row, Theydon Bois, Epping",51.6714772,0.1023755
White House,"26 The Broadway, Stanmore",51.6177192,-0.3102717
Wo Fat,"270-272 High Road, Loughton",51.6499265,0.0571317
Yumchi,"Halls Terrace, 5 Uxbridge Road, Uxbridge",51.5285655,-0.4444189
Adelaide Delfino,"134 Vartry Road, London",51.5755121,-0.0828454
‘æ?Š?‘??‚?ªŠ??,"Shaftesbury Ave, London",51.526688,-0.105357
ArtHouse Crouch End,"159A Tottenham Lane, London",51.5818637,-0.1200304
BAFTA,"195 Piccadilly, London",51.5087262,-0.1374546
Barbican Cinema 2 & 3,"Silk Street, London",51.5210851,-0.0929727
Barra Hall Park Open Air Theatre,United Kingdom,51.5184609,-0.4232971
BFI IMAX,"1 Charlie Chaplin Walk, London",51.5048361,-0.1136626
BFI Southbank,"South Block, Belvedere Road, London",51.5065056,-0.1148715
Boleyn Cinema,"7-11 Barking Road, London",51.5304446,0.0385178
Brecon House,"6GU,, 22 Taywood Road, Northolt",51.5304621,-0.3762043
Brookfield Multiplex,United Kingdom,51.4842803,-0.1720464
Brookfield Multiplex,"35 Glebe Place, London",51.4849872,-0.170823
Central London,"Ariel Way, London",51.5079609,-0.2193067
Charing Cross Theatre,"10 Craven Street, London",51.5080805,-0.1240468
Cine Lumiere,"17 Queensberry Place, London",51.4945863,-0.1773215
Cinema Italia UK,"93-95 Mile End Road, London",51.5211687,-0.0511182
Cineworld Cinema - London Chelsea,"279 King's Road, London",51.4854194,-0.1733711
Cineworld Cinema - London Enfield,"Southbury Leisure Park, 208 Southbury Road, Enfield",51.6499209,-0.0605544
Cineworld Cinema - London Fulham Road,"142 Fulham Road, London",51.4871141,-0.1793828
Cineworld Cinema - London Haymarket,"63-65 Haymarket, London",51.5087245,-0.1323668
Cineworld Cinema - London Ilford,"Clements Road, Ilford",51.5577717,0.0738615
Cineworld Cinema - London Leicester Square,"5-6 Leicester Square, London",51.5108661,-0.1303966
Cineworld Cinema - London The O2 Greenwich,"The O2, London",51.5030431,0.0042377
Cineworld Cinema - London Wandsworth,"Southside Shopping Centre, Wandsworth High Street, London",51.4541047,-0.1935847
Cineworld Cinema - London Wembley,"Park Lane, London",51.5556119,-0.2825548
Cineworld Cinema - London West India Quay,"Hertsmere Road, West India Quay, London",51.5078686,-0.0225203
Cineworld Cinema - London Wood Green,"The Gallery Wood Green Shopping City, High Road, London",51.5942821,-0.1074511
Cineworld Cinemas - London Wembley,"London Designer Outlet, Wembley Park Boulevard, Wembley",51.5566351,-0.2832926
Clapham Picturehouse,"76 Venn Street, London",51.4625169,-0.1381981
Close-Up Cinema,"97 Sclater Street, London",51.5236209,-0.0720139
Curzon Bloomsbury,"The Brunswick, London",51.524128,-0.123094
Curzon Chelsea,"206 King's Road, London",51.4881353,-0.1673805
Curzon Mayfair,"38 Curzon Street, London",51.506563,-0.1479782
Curzon Richmond,"Water Lane, Richmond",51.459274,-0.307014
Curzon Soho,"99 Shaftesbury Avenue, London",51.5126348,-0.1306277
Delfont Mackintosh Theatres,"5 Aldwych, London",51.5124602,-0.1190794
Digital gatehouse Ltd,"94 Cleveland Street, London",51.5227017,-0.1412601
Dochouse,"7 Cavendish Square, London",51.5169367,-0.1440256
Downtown Wembley,"Empire Way, Wembley",51.5587943,-0.2849431
Drive For Both,"Somerfield Road, London",51.5641615,-0.1008863
‰????¯ª ‰¬???¡??,"4A Thurloe Street, London",51.4944794,-0.1726075
East 15 Technologe Dept,"10 Oakwood Hill Industrial Estate, Loughton",51.6437424,0.081614
Electric Cinema,"191 Portobello Road, London",51.5155166,-0.2050174
Electric Cinema,"Aubin & Wills Store, 64-66 Redchurch Street, London",51.5243049,-0.0739953
Empire Cinemas Walthamstow,"267 High Street, London",51.5849925,-0.0200261
Everyman Baker St,"Baker Street, London",51.52055,-0.15656
Everyman Belsize Park,"203 Haverstock Hill, London",51.55082,-0.165801
Everyman Canary Wharf,"2, 2 Crossrail Place, Canary Wharf",51.5061672,-0.0180553
Everyman Cinema,"5 Holly Bush Vale, London",51.5564839,-0.1790698
Everyman Maida Vale,"215 Sutherland Avenue, London",51.5280662,-0.1817424
Everyman Muswell Hill,"Fortis Green Rd, Muswell Hill, London",51.5896178,-0.1463898
Everyman Screen on the Green,"83 Upper Street, London",51.536813,-0.1036553
Flicksfilms,"Shropshire Court, Copley Close, London",51.5200643,-0.3306892
Genesis,"Theresa House, 74 Cephas Avenue, London",51.521562,-0.0488714
Genesis cinema,"93-95 Mile End Road, London",51.521115,-0.0511071
Greenwich Picturehouse,"180 Greenwich High Road, London",51.4795409,-0.0097258
Hackney Picturehouse,"270 Mare Street, London",51.5447022,-0.0548984
Haringey Independent Cinema,"West Green Learning Centre, West Green Road, London, N15 3RB",51.587139,-0.09054
Harlow Film Club,"Latton Bush Business Centre, Harlow",51.753666,0.107417
Hensley Point,"Bentham Road, London",51.5446507,-0.042783
Himalaya Palace Cinema,"14 S Rd, Southall",51.5107577,-0.3766695
I Am Here,"???æ?¯???§???ñ¥???¥??ø?«??¥, Bushey",51.6490273,-0.3402687
Imperial Cinema,"Beit Quad, Prince Consort Road, London",51.5004484,-0.1779401
InSight,"317-319 Holloway Road, London",51.5534441,-0.1134426
iPoo,"Brent Cross Shopping Centre, London",51.5756555,-0.2257821
Kenwood Open Air Theatre,London,51.5688339,-0.1652997
kits house,"Baker Street, London",51.5209148,-0.1570145
Latin America Film,"22 Notting Hill Gate, London",51.509726,-0.1937732
Leicester Square Box Office,"Unit 2 Westfield Stratford City, Montfichet Road, London",51.5435956,-0.0062384
Lexi Cinema,"194B Chamberlayne Road, London",51.5376332,-0.2224914
Lol,"32 King Edward's Road, London",51.6355447,-0.0528992
London Film Makers' Co-Operative,London,51.5403981,-0.1505861
M Ikm,"Old Broad Street, London",51.5156808,-0.0841784
Made in London,"10-, 11 Charterhouse Square, London",51.5211593,-0.0985992
Medicinema,"Guy's Hospital, Conybeare House, London",51.5044201,-0.0882849
Moviemail Limited,"5 Stucley Place, London",51.5406046,-0.1432581
Mr & Mrs,"16-18 Kirby Street, London",51.5204282,-0.1072881
Mr B's,"279 City Road, London",51.5300467,-0.0984377
Odeon Cinema,"Whiteleys Shopping Centre, Queensway, London",51.51441,-0.188216
Odeon Cinema,"419-427 Holloway Road, London",51.5585831,-0.1213922
Odeon Cinema Camden,"14 Parkway, London",51.5388707,-0.1436024
Odeon Cinema Lee Valley,"Pickett's Lock Lane, London",51.6331635,-0.0372467
Odeon Cinema Leicester Square,"24-26 Leicester Square, London",51.5104894,-0.1294109
Odeon Cinema London Tottenham Court,"Central Cross, 30 Tottenham Court Road, London",51.5183439,-0.1324501
Odeon Cinema Putney,"26 Putney High Street, London",51.465209,-0.2139075
Odeon Cinema Richmond,"72 Hill Street, Richmond",51.458286,-0.3052995
Odeon Cinema South Woodford,"60-64 High Road, London",51.5944862,0.0229844
Odeon Cinema Streatham,"47-49 Streatham High Road, London",51.4321478,-0.1289701
Odeon Cinema Surrey Quays,"Surrey Quays Leisure Park, Redriff Road, London, Surrey Quays",51.4960742,-0.0448185
Odeon Cinema Swiss Cottage,"96 Finchley Road, London",51.5425442,-0.1745245
Odeon Cinema Uxbridge,"The Chimes Shopping Centre, Uxbridge",51.545036,-0.4760121
Odeon Cinema Whiteleys,"Whiteleys, 151 Queensway, London",51.5151279,-0.1886098
Odeon Covent Garden,"135 Shaftesbury Avenue, London",51.5142529,-0.1281935
Odeon IMAX Cinema,"39 The Broadway, London",51.419868,-0.204856
Odeon IMAX Cinema Greenwich,"Bugsby Way, London",51.4904245,0.0126257
Odeon Panton Street,"11/18 Panton Street, London",51.5095898,-0.1312538
Odeon Studio,"6 Red Lion Street, Richmond",51.4593725,-0.3054187
Olympic Studios,"117-123 Church Road, London",51.475239,-0.240644
Perrys Movies,"53 Church Road, Hounslow",51.4840244,-0.3736636
Phoenix Cinema,"52 High Road, London",51.5885032,-0.1639045
Pillow Cinema Al Fresco @ Snap Productions,"151-155 Wimbourne Street, London",51.5337006,-0.0882929
Pinewood Cinema,"Pinewood Studios, Pinewood Road, Iver Heath",51.5474923,-0.5346549
Pinewood Studios,"Pinewood Studios, Pinewood Road, Iver Heath",51.5480318,-0.5349938
Premiere Cinemas,"Mercury Mall, Mercury Gardens, Romford",51.5793475,0.185697
Prince Charles Cinema,"7 Leicester Place, London",51.511488,-0.1303206
Prince Edward Theatre,"Compton Street, London",51.524995,-0.1015485
Rabota,"Roebuck Road, Ilford",51.6062382,0.1217864
Reel Cinema,"84 Shenley Road, Borehamwood",51.6551217,-0.2749789
Regent Street Cinema,"309 Regent Street, London",51.5168455,-0.1428238
Renoir Cinema,"Brunswick Centre, London",51.5248912,-0.1239123
Rich Mix Centre,"35-47 Bethnal Green Road, London",51.5243842,-0.0730965
Rio Cinema,"107 Kingsland High Street, London",51.5496576,-0.0755458
Safari,"Station Road, Harrow, Town Centre",51.5865417,-0.3327917
Sals Bar,"brent, 13 Beckett Close",51.5474908,-0.2583185
Sandra meets Ste,"112 Binsey Walk, London",51.4988625,0.1228572
Sands Films Studio,"82 Saint Marychurch Street, London",51.5014193,-0.0534575
Sauna International,"17 Hertford Avenue, London",51.5415238,-0.1386812
Seg Music,"85A Great Portland Street, London",51.518488,-0.1421382
Shivaji place,"175 Westbourne Grove, London",51.51459,-0.1977356
Shortwave Cinema,"10 Bermondsey Square, London",51.497769,-0.080764
Showcase Cinema Wood Green,London,51.5968119,-0.1089358
Showcase Cinemas,"Jenkins Lane, Barking",51.526391,0.0811306
Silvan Ltd,"Forge Place, New Road, Elstree, Borehamwood",51.6442572,-0.2981057
Sky Cinema,"Grant Way, Isleworth",51.4884915,-0.3281093
South Park Drive,"10 South Park Drive, Ilford",51.5538699,0.0943335
St Alfege church hall,"Roan Street, London",51.4804117,-0.0104851
Stratford East Picturehouse,"Salway Road, London",51.5430065,0.0012
Swordtail Studio,"2083, Acton Mews, London",51.5377373,-0.0759568
The Beck Theatre,"Grange Road, Hayes",51.521076,-0.4219488
The Broadway Theatre,"Broadway, Barking",51.5354662,0.0777387
The Castle Cinema,"First Floor, 64 - 66 Brooksby's Walk, London",51.551321,-0.043188
The Gate Cinema,"87 Notting Hill Gate, London",51.5087976,-0.1971922
The Harrison Gastro Pub & Hotel,"28 Harrison Street, London",51.5275867,-0.1204972
The Institute of Light,"376 Helmsley Place, London",51.5397377,-0.0585452
The Lounge,"Thistle Selfridge Hotel, Orchard Street, London",51.5147449,-0.1537278
The Nomad Cinema Brompton Cemetery,"Old Brompton Road, Kensington, London",51.4844764,-0.1902866
The Prince of Greenwich,"72 Royal Hill, London",51.476194,-0.009957
The Prince Of Wales,"51 Saint George's Road, London",51.4956337,-0.1038586
The Screen,"96 Baker Street, London",51.5205606,-0.1565446
The Trojan,"13 Siviter Way, Dagenham",51.5387019,0.1583775
Trilodge hotel ilford,"42 Clements Road, Ilford",51.5573511,0.0719356
Twickenham Film Group Ltd,"14 Basil Street, London",51.5011012,-0.1609773
Vue,"O2 Centre, 255 Finchley Road, London",51.5480423,-0.1819615
Vue,"19 Regent Street, London",51.5089737,-0.1343223
Vue,"Westfield Stratford City, 2 Stratford Place, London",51.54366,-0.0064861
Vue Cinema,"St George's Shopping & Leisure Centre, St Anne's Road, Harrow",51.5817055,-0.338553
Vue Cinema,"19 Regent Street, London",51.5089401,-0.1345848
Vue Cinema Westfield London,"Westfield Shopping Town, London",51.5075698,-0.2214995
Vue Cinemas,"Royale Leisure Park, Western Avenue, Park Royal South, London",51.5257633,-0.2813909
Vue Cinemas,"Shepherd's Bush Green, London",51.5031236,-0.2190632
Vue Cinemas,"Fulham Broadway Retail Centre, Fulham Road, London",51.4806494,-0.1945563
Vue Cinemas,"Hollywood green, 180 High Road, City of London, London",51.5970483,-0.1089535
Vue Cinemas,"Ripple Road, Dagenham",51.5326715,0.1349117
Vue Cinemas,"1-15, Waterloo Road, Romford",51.5749392,0.1800084
Vue Entertainment,"Building 10, 566 Chiswick High Road, London",51.4945334,-0.2734571
Vue Islington,"Central Shopping Mall, 36 Parkfield Street, London",51.53421,-0.1060082
Vue North Finchley,"Great North Leisure Park, Chaplin Square, London",51.6038168,-0.1734025
Watermans Art Centre,"40 High Street, Brentford",51.4856469,-0.2984613
Watford Filmhouse,"Pump House Theatre & Arts Centre, Local Board Road, Watford",51.6502575,-0.3891359
Whirled Cinema,"259-260 Hardess Street, Loughborough Junction, London",51.4650615,-0.1008724
Wills Limited,"64-66 Redchurch Street, London",51.5243682,-0.074004
Wired Screening Room,"76-78 Charlotte Street, London",51.5207114,-0.136893
Fulham Palace,"Bishop's Avenue, London",51.470557,-0.215842
151,"151 King's Road, London",51.4879291,-0.1672409
212 Lounge,"212 High Road, Chadwell Heath, Romford",51.5721272,0.1410764
229 The Venue,"229 Great Portland Street, London",51.5236805,-0.1443796
23 Paul Street,"23 Paul Street, London",51.5230358,-0.0845306
93 Feet East,"150 Brick Lane, London",51.5213105,-0.0714575
Aarti Indian Musical Group,"Ealing Road, Wembley",51.5506729,-0.2986278
Acasa,"Mary's ???æ?¯???§???ñ¥???¥??ø?«??¥, 71 Saint Mary's Road, London",51.5613737,-0.0052776
Addictive,"28 Park Royal Road, Brent Park, London",51.5267531,-0.2670896
Afendi NightClub & Restaurant,"5 Western Avenue, Perivale, Greenford",51.5332618,-0.3244332
Ain't Nothin But Blues Bar,"20 Kingly Street, London",51.5129651,-0.1395328
Aladdins,"374 High Road, Ilford",51.561065,0.084264
Ali baba shisha,Hayes,51.5256818,-0.4334373
All Seasons Hire,"Flat 14, 10 Epworth Street, London",51.5232828,-0.0857841
Allsorts Karaoke Kwizzes & Kabarets,"10 Roycroft Close, London",51.5974176,0.0311845
Alpha Events,"73 Pretoria Road, Romford",51.5780997,0.1660577
Annabel's,"44 Berkeley Square, London",51.509431,-0.146533
Arabelle Lounge,"1, 55 - 57 Bideford Avenue, Perivale, Greenford",51.5363925,-0.3194028
Arcadia,"51-53 Southwark Street, London",51.504663,-0.0944939
Area-56 Ltd,"56 Fraser Road, Perivale",51.5387694,-0.3115424
Arizona | Arabic Night Club,"134 Marylebone Road, London",51.5222178,-0.1581004
Ash Repairs,"4 Wood Lane, London",51.5736396,-0.260293
Aura Mayfair,"48-49 Saint James's Street, London",51.5075683,-0.1406734
Babble City,"45 Old Broad Street, London",51.5161754,-0.0832318
Barracuda Bar,"8 The Mall, London",51.5141673,-0.3005452
Barrio Soho,"6 Poland Street, London",51.5141569,-0.1366085
Betty Strathern Centre,"41 Myrtle Road, Romford",51.602551,0.213971
blagclub,"11 Russell Gardens, London",51.5001454,-0.2109648
Blue Plate Management Consultancy,"108 Nottingham, Manors at Celebrity Place Capitol Hills Drive Quezon City, Philippines",51.6058544,-0.3711432
Bodo's Schloss,"2A Kensington High Street, London",51.5026959,-0.1880013
BollyParty @ Cafe Chai,"34 The Broadway, Ealing",51.5140824,-0.3021335
Borshtch N Tears - ????¥?¥? ?? ?­?¯¥??ú¥?,"46 Beauchamp Place, London",51.4975597,-0.1649211
Bosleys,"107-115 The Parade, High Street, Watford",51.658853,-0.400411
Boujis,"43 Thurloe Street, London",51.4944609,-0.1743556
Browns,"1 Hackney Road, London",51.5272854,-0.0776718
Buckhurst Hill Jazz Jam,"Buckhurst Hill Sports and Social Club, 50a Queens Road, Buckhurst Hill",51.62505,0.043875
Bunga Bunga - Battersea,"37 Battersea Bridge Road, London",51.4789037,-0.170207
Caesars,"High Street, Cowley, Uxbridge",51.528548,-0.481706
Caf?? de Paris,"3 Coventry Street, London",51.5104608,-0.1318824
Capital A List,"Millmead Business Centre Mill Mead Industrial Centre, Mill Mead Road, London",51.592564,-0.057322
Cargo,"83 Rivington Street, Shoreditch, London",51.526328,-0.078728
Carlton Lounge,"232-234 Kingsbury Road, London",51.583345,-0.263034
Casablanca Lounge,"181 Ealing Road, Wembley",51.541272,-0.2975097
Catch,"22 Kingsland Road, London",51.527696,-0.077891
Charlies Gentlemen's Club - London W2,"37 Leinster Gardens, London",51.5131214,-0.1840423
Chelsea Arts Club,"143 Old Church Street, London",51.4879367,-0.1746441
Cheshunt Country Club,"Theobalds Lane, Cheshunt",51.6907918,-0.053402
Chinawhite,"4 Winsley Street, London",51.5160216,-0.1383157
Ciao Ciao,"334 Kilburn High Road, Kilburn",51.5456295,-0.2020608
Cip,"Bethell Avenue, London",51.522833,0.013555
CircleClubcard.com,"London, Hackney",51.5483148,-0.055905
Circuit Essex,"36-38 North Street, Romford",51.5795168,0.1795928
Cirque le Soir,"15-21 Ganton Street, London",51.5128308,-0.1390347
Citybunker,"Cannon Workshops, Hertsmere Road, London",51.507179,-0.026618
Club 195,"Cottis Lane, Epping",51.6995163,0.1108063
Club Aquarium,"256-260 Old Street, London",51.5260046,-0.085458
CLUB AZURE,"8-10 Silver Street, Enfield",51.6525942,-0.0808119
Club Funky Discoteca Romaneasca,"The Hyde, London",51.5839397,-0.2481375
Club JDS,"1 Jute Lane, Enfield",51.6551139,-0.0300694
Club K,"236a High Street, Hounslow",51.4682308,-0.3658679
Club MM,"151-153 Barking Road, London",51.5314919,0.0445764
Club Ramos,"Clements Road, Ilford",51.5578783,0.0721295
Clubbing Source - Clubbing Coach Departure Point,"32 High Street, Watford",51.6564987,-0.3974605
Clubs 2004,"168 Station Lane, Hornchurch",51.553986,0.2177203
Clubsafe,"29 Beechwood Drive, Woodford Green",51.6099709,0.0174262
Clubul Romanesc Masons Arms,"75 High Street, Edgware",51.6104358,-0.2794364
Confetti Digital,"Westward Road, London",51.6105236,-0.0248829
COYA Mayfair,"118 Piccadilly, London",51.5043943,-0.1478805
Cream,"334 Kilburn Lane, London",51.5328544,-0.2049781
Cricklewood Trades Hall Club & Institute Ltd,"134-136 Cricklewood Lane, London",51.5600653,-0.2089674
Crown & Anchor,"222 Fore Street, London",51.6164388,-0.0636372
Crystal Clubs,"1, Poppin Business Centre, South Way, Wembley",51.5553481,-0.2762751
Custom Vapes,"151 Plaistow Road, London",51.533513,0.013117
D'Den Legacy,"135 Finchley Road, Swiss Cottage, London, NW3 6JH",51.5435486,-0.1741
decks.co.uk,"3, Gateway Trading Estate, Hythe Road, London",51.5287105,-0.2453482
DING DONG FUN BUS,"Selby Centre, Selby Road, London",51.6075352,-0.0793924
Discoz.Com,"Ruislip Golf Course, Ickenham Road, Ruislip",51.5705237,-0.4380183
DJ Ryan Morris Hertfordshire,"8 Lancing Way, Croxley Green, Rickmansworth",51.6518819,-0.4420955
DOM UK,"7 Portland Crescent, Greenford",51.5244752,-0.3592552
DoubleTree by Hilton Hotel London - Tower of London,"7 Pepys Street, London",51.510885,-0.078078
DoubleTree by Hilton Hotel London - Westminster,"30 John Islip Street, London",51.49327,-0.127069
Drama,"35 Hertford Street, London",51.5055135,-0.1502787
Eagle London,"349 Kennington Lane, London",51.4863356,-0.1193411
East London Sound & Lighting Centre,"775 Romford Road, London",51.551911,0.0504975
Eaton Square Bar,"17 Hobart Place, London",51.4982061,-0.1475091
Eclipse,"158 Old Brompton Road, London",51.4908941,-0.1832095
Eddie's Disco & Karaoke Service.,"17 Sycamore Court, Barrack Road, Hounslow",51.463472,-0.388469
Edward Barker,"59B Teignmouth Road, London",51.5503534,-0.2163305
EGG London,"200 York Way, London",51.541717,-0.125191
Eight Moorgate,"1 Dysart Street, London",51.5216054,-0.0837845
Electric Ballroom,"184 Camden High Street, London",51.5396971,-0.1430325
Electrowerkz,"7 Torrens Street, London",51.532518,-0.105002
Embargo Rep?§blica,"533 King's Road, London",51.4801877,-0.185201
Empire Hookah Lounge,"667, 669 Green Lane, Dagenham",51.5627287,0.1219296
Enfield Entertainment (Disco and Karaoke service),"189 Baker Street, Enfield",51.6600925,-0.0791297
EonKaraoke,"90 Mill Lane, London",51.551532,-0.1993105
Euphoriom Nightclub and Bar,"1 High Street, London",51.506445,-0.26409
Everest Abercorn,"78 Stanmore Hill, Stanmore",51.6210267,-0.3158765
Excel strip,London,51.5083679,0.0549125
F X Music,"Yeading Lane, Northolt",51.5353448,-0.3942364
fabric,"77A Charterhouse St, London",51.5196185,-0.1025094
Faces Nightclub,"458-462 Cranbrook Road, Ilford",51.577068,0.06834
Fiction,"Havana Close, Romford",51.575222,0.182676
Fiction,"108 South Street, Romford",51.575271,0.183007
Fire Bolt,"193 Askew Road, London",51.501251,-0.239776
FM Karaoke and Disco Club,"184 Uxbridge Road, London",51.5054017,-0.2250995
fortus security,"86 Uxbridge Road, London",51.5087013,-0.3367493
Fortus Security,"Palmers Lane, Enfield, London",51.6628694,-0.0492919
Fusion Shisha Lounge,"135 Ley Street, Ilford",51.5615208,0.0761559
Gate,"87 Notting Hill Gate, London",51.5087224,-0.1972362
Gladdy Wax Sound Systems & Dj Equipment Hire,"2 Whitley Road, London",51.5962703,-0.0743104
Green & Jacks,"272 Field End Road, Ruislip",51.5754209,-0.3970054
Hannahs place,"58 Denny Avenue, Waltham Abbey",51.6834792,0.0035665
Hatty's pooculiar palace,"68 Southwold Road, London",51.562438,-0.0534699
Heart N Soul Karaoke & DJ Romford Essex,"114 Marlborough Road, Romford",51.5829213,0.1597399
Heathrow Plant,Hayes,51.5021692,-0.4064928
Heaven,"11, The Arches, Villiers Street, London",51.5079149,-0.1244919
Hedonism Org UK,"Downing Drive, Greenford",51.5388694,-0.3422244
HideOut London,"29 Weston Street, London",51.504535,-0.085079
Hilton London Angel Islington,"53 Upper Street, London",51.5359438,-0.104877
Hilton London Hyde Park,"129 Bayswater Road, London",51.5104611,-0.1875145
Home House London,"20 Portman Square, London",51.5162599,-0.1565498
HURRICANE ROOM Walthamstow,"1 Hoe Street, London",51.589969,-0.017327
Illusions Bar & Grill,"1 Mattock Lane, Ealing",51.5116649,-0.3064814
Intertain Ltd,"575-599 Maxted Rd, Hemel Hempstead",51.6594616,-0.2533087
Jalouse,"17 Hanover Square, London",51.5142873,-0.1447656
Jazz Caf??,"5 Parkway, London",51.538711,-0.143078
JET KARAOKE,"6 Whiteheath Avenue, Ruislip",51.5806064,-0.4380086
Jhankaar Club,"27 Broadway, London",51.540434,0.001312
Jongleurs,"108 South Street, Romford",51.5753041,0.1829332
jumpup ballet & jazz dance school,"West Heath Yard, 174 Mill Lane, London",51.5518067,-0.1933491
Kamology,Southall,51.5074999,-0.3784834
Karaoke at Queens,"Queens Ice and Bowl, 17 Queensway, London",51.5108733,-0.1872772
Karaoke Box Smithfield,"12 Smithfield Street, London",51.5178384,-0.1032931
Karma Ealing,"10 High Street, London",51.5122099,-0.3044311
karma ealing,"10 Higham Road, London",51.5928749,-0.0796697
Kelly Bar,"411 Hendon Way, London",51.5820716,-0.22725
Kings Lounge,"163 Edgware Road, London",51.5863963,-0.2505288
Kingsway Stairs,"0AB, 137 Station Road, London",51.5534766,0.0207262
LA Lounge,"Bell Lane, Dock Road, London",51.5045805,0.0175632
Latelys Bar / Club,"175 West End Lane, London",51.5463469,-0.191379
Leytonstone & District Ex-Servicemens Club,"2 Harvey Road, London",51.5678447,0.0113894
Liquid & Envy,"233 High Street, Uxbridge",51.5441491,-0.4742954
Liquid Nightclub,"Market Square, 3-4 The Rows, Harlow",51.7713436,0.0928139
Lucky Voice,"173-174 Upper Street, London",51.5414496,-0.1030619
Luna Hornchurch,"64/68 High Street, Hornchurch",51.5627834,0.2167427
M & D Entertainments Ltd,3 Clements Road,51.5581679,0.0716756
Maddox Club,"3-5 Mill Street, London",51.5126742,-0.1422802
Make a Note Mobile Disco,"Bolton Gardens, London, Kensington",51.4908499,-0.1884325
Mangle E8 Nightclub,"2-18 Warburton Road, London",51.5388795,-0.0578761
Mangos Wembley - Bar - Shisha - Dinner & Club,"1 Poppin Business Centre, South Way, Wembley",51.5551139,-0.2755116
Market Place Bar,"11-13 Market Place, London",51.516427,-0.1404773
Matter Nightclub,matter nightclub,51.583446,-0.3153114
Maya Hotel,"Ealing Road, Wembley",51.5430948,-0.2974357
Metro Leisure Ltd,"9 Warspite Road, London",51.4944514,0.0449601
Meursault,"36 Gloucester Road, London",51.498497,-0.183819
Ministry of Sound,"103 Gaunt Street, London",51.4977178,-0.0997962
Minx,"126 High Road, Loughton",51.6454325,0.0530184
Missoula,"105-111 South Street, Romford",51.5759904,0.1829835
Mobile Disco and Wedding DJ services in Essex : UK-Disco,"114 Marlborough Road, Romford",51.5829223,0.1597297
MODE,"12 Acklam Road, London",51.5197391,-0.2059481
Molton House,"43 South Molton Street, London",51.5139855,-0.1483157
Monique Bar and Club,"59 Hight Street, Edgware, London",51.610275,-0.279293
Mount Bruis Ltd,"42A The Broadway, London",51.5144663,-0.3023592
Mtec Enfield,"65 Millmarsh Lane, Enfield",51.6577351,-0.0263973
My Salsa Fix (at the Country CLub),"Theobalds Park, Lieutenant Eliis Way, Cheshunt",51.688479,-0.056401
myfuzzylogic,"127 The Parade, Watford",51.6594204,-0.4005361
Nightjar,"129 City Road, London",51.526531,-0.087757
Notting Hill Arts Club,"21 Notting Hill Gate, London",51.509239,-0.1944351
Number 1 London,"1 Duke Street Hill, London",51.506017,-0.087032
Number4Club,"4 Fulham High Street, London, Fulham",51.4714996,-0.2114554
O2 Academy Islington,"N1 Centre, 16 Parkfield Street, Islington",51.5343501,-0.1058837
Oceana,"127 The Parade, Watford",51.6597519,-0.3999281
One Love Entertainment,"22 Farningham Road, London",51.6045529,-0.0601899
Ongar Photographic Club,"Castle Street, Ongar",51.7034424,0.2463121
Orleans,"259-261 Seven Sisters Road, London",51.5645968,-0.1050174
OutClubbing.com,"102 Coopersale Common, Coopersale, Epping",51.7026634,0.1347346
Paradise by Way of Kensal Green,"19 Kilburn Lane, London",51.528834,-0.216267
ParkBox Ltd,"Capital House/67-69 St. Johns Rd, Isleworth",51.4715625,-0.3351871
Party Knightz,"Mulberry Parade, West Drayton",51.5045759,-0.4576149
Piccadilly Institute,"The London Pavillion, 1 Piccadilly Circus, London",51.5103777,-0.1339868
Pink Chicks,"20 Wych Elm, Harlow",51.772036,0.0903207
Platinum Lace Bar & Gentlemen's Club,"13 Coventry Street, London",51.5103222,-0.1329517
Platnum Lounge,453 Aldborough Road South,51.577187,0.0999797
Popstarz Parties,"40 Wellington Road, Pinner",51.605562,-0.374817
Posh Promotions Ltd,"199 High Street, Epping",51.6992837,0.1111053
Project London,"78 Wells Street, London",51.516312,-0.137242
Proud2,"The O2, Peninsula Square, London",51.5042839,0.0028492
Psy,"708D Abbey Road, London",51.5364505,-0.2774016
PUBLIC,"533 King's Road, London",51.4802254,-0.1852481
Radletts,"5-296 Theobald Street, Radlett",51.6754042,-0.3015668
Raffles Chelsea,"287 King's Road, London",51.4853335,-0.1737107
Red Lion,"1 Eldon Street, London",51.5188161,-0.0859791
Reflex,"17 Watling Street, London",51.5130997,-0.0945379
Roadhouse,"The Market At Covent Garden, 35 The Piazza, London",51.5116798,-0.1219095
Rock Night Music,"475 High Rd, London",51.5585589,0.0068512
Ronnie Scott's,"47 Frith Street, London",51.5134706,-0.131535
Russells Karaoke,"29 Canons Gate, Cheshunt, Waltham Cross",51.7189193,-0.0235643
Sam Judd DJ Services,"High Street, Chipping Ongar, Ongar",51.706443,0.2452786
Secrets,"43-45 East Smithfield, London",51.5086727,-0.0694829
Seen Nightclub,"3-4 The Rows, Harlow",51.771342,0.0926676
She.world,"6 Leytonstone Road, London, Stratford",51.546772,0.006579
Skating Haven (Roller Skating London),"Newham Leisure Centre, 281 Prince Regent Ln, London, Plaistow,Newham",51.5186934,0.0362206
Snooker Club,"Green Lane, Dagenham",51.5614855,0.1334248
Solar Entertainment,"2 Linton Road, Barking",51.5385269,0.0793714
SophistiCats,"28 Marylebone Lane, London",51.5154828,-0.1489269
South Harrow Sports & Social Club,"Valentine Road, Harrow",51.5630104,-0.3570807
Spearmint Rhino London,"161 Tottenham Court Road, London",51.5232663,-0.1365444
Stargazer Discos Karaoke and Disco Equipment Hire,"36 Park Avenue, Barking",51.542364,0.084006
Stringfellows,"16-19 Upper St Martin's Lane, London",51.5122658,-0.1267754
Studio 338,"338 Boord Street, London",51.4954417,0.00482
SUSHISAMBA London,"Heron Tower, 110 Bishopsgate, 39th Floor, London",51.5161743,-0.0809402
Teds Place,"305 North End Road, London",51.4858083,-0.2025067
The Backstreet,"Wentworth Mews, London",51.5245206,-0.0341928
the beehive,"3lt, 104 Empson Street, London",51.5220939,-0.0141623
The Black Leaf,"163 Edgware Rd, Colindale",51.593417,-0.2589523
The Borderline,"Orange Yd, Manette Street, London",51.5150442,-0.1305039
The Box Soho,"Walker's Court, London",51.5125623,-0.134118
The Bridge,"28 Hancock Road, London",51.5271052,-0.0105504
The Bulls Head Barnes,"373 Lonsdale Road, London",51.4737622,-0.2510364
The Clapham Grand,"21-25 Saint John's Hill, London",51.4629923,-0.1693688
The Comedy Club - Oceana Watford,"127 The Parade, Watford",51.6594204,-0.4005361
The Comedy Loft,"11, East Yard, Chalk Farm Road, London",51.5414623,-0.1457991
The Dolphin,"1 Rockingham Road, Uxbridge",51.5436287,-0.4878161
The Dome,"2A Dartmouth Park Hill, London",51.557349,-0.138669
The Earl of Chatham,"15 Thomas Street, London",51.4903108,0.0665278
The Elm,"206 North End Road, London",51.4866564,-0.2033569
The Fez Club,"200b Upper Richmond Road, London",51.4608005,-0.2166398
The Half Moon,"93 Lower Richmond Road, London",51.4672964,-0.2201418
The Harrow in Harrow,"269-271 Station Road, London, Harrow",51.582581,-0.332281
The Hideaway Lounge,"345 Ley Street, Ilford",51.564565,0.0828643
The Hoist,"47b-47c, Railway Arches, South Lambeth Place, London",51.4852639,-0.1226241
The Horse & Groom,"28 Curtain Road, London",51.5228733,-0.0805221
The Hoxton Pony,"104-108 Curtain Road, London",51.5253726,-0.080202
The Macbeth,"70 Hoxton Street, London",51.5301352,-0.080147
The Mayfair Club,"49-50 Dover Street, London",51.5076743,-0.1415627
The Nest,"36 Stoke Newington Road, London",51.5516511,-0.0747403
The Old Blue Last,"38 Great Eastern Street, London",51.52442,-0.080153
The Old Queens Head,"44 Essex Road, London",51.5372139,-0.1003678
The Red Room,"42A The Broadway, London",51.5144349,-0.3024069
The Roxy,"3-5 Rathbone Place, London",51.5166067,-0.133026
The Shanghai,"40-44 North Street, Romford",51.579433,0.179529
The Shed,"1 Queen's Yard, London",51.5429555,-0.0231367
The Star by Hackney Downs,"35 Queensdown Road, London",51.5530383,-0.0577916
The Underworld,"174 Camden High Street, London",51.5392248,-0.1421612
The Victoria,United Kingdom,51.5352664,0.0796521
The Victoria Dalston,"451 Queensbridge Road, London",51.545719,-0.069971
The Westbourne Studios Club,"242 Acklam Road, London",51.5214502,-0.2030014
The Whip & Collar,Iver,51.5269456,-0.5197839
The White Swan,"556 Commercial Road, London",51.512528,-0.041182
The Windmill International,"17-19 Great Windmill Street, London",51.511383,-0.1340868
Time Caf?? Bar Restaurant,"1, Brentford Lock, High Street, London",51.4829623,-0.3106526
Tipsy Dalston,"20 Stoke Newington Road, London",51.5511822,-0.0747062
Tommy Flynn's Hounslow,"66 Staines Road, Hounslow",51.4672057,-0.3686223
Trinity Bar,"378-380 Station Road, Harrow",51.5791158,-0.3337118
Unforgettable Discos,"4 Redriff Road, Romford",51.5907178,0.1655918
Unique Soundz Mobile Karaoke And Disco,"35 Hawks Mead Close, Enfeild",51.6777366,-0.0392727
United Airlines London Heathrow Terminal 2 Lounge,"Terminal 2 London Heathrow, Croydon Rd, Longford, Hounslow",51.4716468,-0.4432189
United Lounge,"Terminal 2, Heathrow Airport (LHR), London",51.471646,-0.4432159
Uxbridge Folk Club,"388A Long Lane, Ickenham, Uxbridge",51.5512996,-0.4486362
Villa Country,"4jb, 75 Park Parade, London",51.536957,-0.242334
Vintage Bar,"36A High Street, Pinner",51.5940813,-0.3805878
Visions Video Bar,"588A Kingsland Road, London",51.5458725,-0.0754282
Viva,"1-3 Hill Rise, Richmond",51.4580509,-0.3054664
Vortex,"11 Gillett Square, London",51.5488516,-0.0767296
Warehouse,"H9, Hastingswood Trading Estate, Harbet Road, London",51.6089921,-0.0368598
WAX London,"Joel Street, Northwood Hils",51.6014562,-0.4092159
Wellington Club,"116A Knightsbridge, London",51.5018187,-0.1627067
Xclusiv Nite,"Cooks Road, Dagenham Leisure Park, Dagenham",51.532562,0.135781
XOYO,"32-37 Cowper Street, London",51.5254338,-0.085736
Yates's,"87-89 South Street, Romford",51.5764161,0.1826477
ZanziBar Nightclub,"280A High Street, Uxbridge",51.5448316,-0.476842
Roundwood Park,"Harlesden Road, London",51.5410918,-0.2379585
The Walnut Tree,"Willow Tree Lane, Hayes",51.5263882,-0.3931537
The Wishing Well,"1250 - 1256 Uxbridge Road, Hayes",51.5254433,-0.4335942
Morrisons,"High Road, Woodgreen, London",51.5963234,-0.1109704
1 Lombard Street,"1 Lombard Street, London",51.5130738,-0.0889629
1901 Restaurant,"Andaz London Liverpool Street, 40 Liverpool Street, London",51.5172992,-0.0817225
Arepa & Co,"58A De Beauvoir Crescent, London",51.5371326,-0.0799164
Ask Italian,"139-140 High Street, Uxbridge",51.5475,-0.480452
Ask Italian,"The Former Post Office, Market Street, Watford",51.655525,-0.397053
ASK Italian,"41 Spring Street, Paddington",51.5144852,-0.1750992
Aspen Tree,"Gobions Avenue, Romford",51.60032,0.177165
Bangalore Express City,"1, Corbet Court, 3-6 Gracechurch Street, London",51.5129439,-0.0846649
Barbican Kitchen,"Barbican Centre, G, Silk Street, London",51.5195655,-0.0934213
Beboz,"60-, 65 Holborn Viaduct, London",51.517077,-0.1041361
Bel-Air Food,"54 Paul Street, London",51.5241585,-0.084071
Bengal Spice,"12 Forest Road, Loughton",51.6465489,0.0536052
Berneliu uzeiga Shepherds Inn,"485 High Road Leytonstone, London",51.5589589,0.0069532
Bill's,"270-272 Chiswick High Road, London",51.4926204,-0.2594184
Bill's,"36-44 Brewer Street, London",51.5118122,-0.1351515
Bill's Islington Restaurant,"9 White Lion Street, London",51.5327019,-0.1069284
Bistrotheque,"23-27 Wadeson Street, London",51.5340302,-0.0560876
Bluebell,"117 High Road, Chigwell",51.6254897,0.081991
Boneyard Shoreditch,"168-175 Shoreditch High Street, London",51.5247307,-0.0776263
Brown Eagle,"586 Hertford Road, Enfield",51.6691919,-0.0414211
BunBunBun Vietnamese Food,"134B Kingsland Road, London",51.53091,-0.0769337
Cafe Bengal,"41 The Broadway, Loughton",51.6476175,0.0829236
Cafe Brazil,"511 Fulham Road, London",51.4801186,-0.1918563
Cafe Cafe,"51 High Street, Harrow",51.570299,-0.339554
Caraway Restaurant,"513-519 Cranbrook Road, Ilford",51.5750486,0.0661239
Charlotte's Place,"16 Saint Matthew's Road, London",51.508457,-0.296085
Chaudhrys Buffet Restaurant,"198-202 Fore Street, London",51.6143605,-0.0642566
Chennai Dosa,"339 High Street North, London",51.5437657,0.0496557
Chennai Spice,"217 Hertford Road, London",51.6320076,-0.0550951
Club 182,"182-184 Preston Road, Wembley",51.5701541,-0.294394
Cock & Magpie,"Epping Green, Essex",51.7294848,0.0763791
Cube,"32-34 Watford Road, Wembley",51.5568711,-0.3170863
Cyprus Meze,"526 Lea Bridge Road, Leyton",51.5726447,-0.0173659
Elephant Royale,"579-581 Gants Hill Crescent, Ilford",51.5771546,0.0674112
Ethos,"48 Eastcastle Street, London",51.5163718,-0.1390993
F.Cooke,"9 Broadway Market, London",51.5359544,-0.0622431
Fabrica 584,"584 Kingsland Road, London",51.545735,-0.0755735
Food filosophy,"55 Ebury Street, London",51.4962138,-0.1471866
Food Garden Cafe,"400 Oxford Street, London",51.5145647,-0.1519194
Food House,"67 Leicester Square, London",51.5124,-0.1288747
Food Ink Office,"499-505 Hackney Road, London",51.5325505,-0.0584011
Gaucho,"The O2, Peninsula Square, London",51.5021798,0.0047596
Glasshouse,"14 Station Parade, Richmond",51.4769959,-0.2856471
Godot's Bistro,"139 Station Road, London",51.6327555,0.0082184
Gourmet Burger Kitchen,"35 Haven Green, London",51.5157284,-0.3019788
Grace Bar & Restaurant,"-44, 42 Great Windmill Street, London",51.51102,-0.134178
Grand Caf??,"Royal Exchange, London",51.5136208,-0.0871398
Gujarati Rasoi Restaurant,"10C Bradbury Street, London",51.5486795,-0.0765711
Gymkhana,"42 Albemarle Street, London",51.5084912,-0.1414724
Harrods Food Hall,"87-135 Brompton Road, London",51.4992364,-0.1638026
Harvester,"900 High Road, Romford",51.5683116,0.1194559
Harvester - The Jolly Badger,"128 Hale Lane, Edgware",51.61695,-0.260359
Harvester Chingford,"Larkswood Leisure Park, 175 New Road, Chingford",51.6175677,-0.0073077
Harvester Croxley Green,"253 Watford Road, Croxley Green, Rickmansworth",51.6515098,-0.4304682
Harvester The Beehive,"145-147 Beehive Lane, Ilford",51.5774919,0.0591897
Harvester The Navigation,"4 Wharf Road, Enfield",51.6435705,-0.0295821
Hawker,"13 Camden High Street, London",51.5348397,-0.1392189
Horns & Horseshoes,"Harlow Common, Foster Street, Harlow",51.7575034,0.1506842
Iberica Canary Wharf,"12 Cabot Square, London",51.5057579,-0.0220239
Jamie Oliver's Fifteen,"15 Westland Place, London",51.5285944,-0.0902473
JANE-TIRA,"28 Brewer Street, London",51.5121399,-0.1345421
Jungle Braai,"115 Wood Street, London",51.5882373,-0.0039585
Juoda-Balta,"2 Jenkins Lane, Barking",51.5271514,0.0802363
Just F.A.B. Food Bus in London,"459, 455 Hackney Road, London",51.5323403,-0.0604186
Kervan Sofrasi Edmonton,"80 Church Street, London",51.625697,-0.06473
KIN,"88 Leather Lane, London",51.5214376,-0.1099092
Koshari Street,"56 Saint Martin's Lane, London",51.5109187,-0.1268883
La Trevi,"476-478 Larkshall Road, London",51.6085703,-0.001077
L'Anima,"1 Snowden Street, London",51.5213756,-0.0816114
Le Spice,"1, Arlingham Mews, Sun Street, Waltham Abbey",51.6868493,-3.46E-05
Leonardos,"49 Queen's Road, Buckhurst Hill",51.6253788,0.0442486
Loch Fyne Restaurant,"280-282 High Road, Loughton",51.6501097,0.057289
Lockside Camden,"75-89 Upper Walkway, Camden Lock Place, London",51.540937,-0.146566
Loughton BBQ,"171 High Road, Loughton",51.6451294,0.0530538
Mai Food,"7A Kenway Road, London",51.4930089,-0.1934819
Marcel & Sons,"5 Elephant Road, London",51.493209,-0.0985189
Masti - Restaurant Bar & Nightclub,"572-582 High Road, Wembley",51.5521444,-0.2987668
Maxim,"124 Golders Green Road, London",51.5740062,-0.2007404
McDonald's,"361/363 Station Road, Harrow",51.5796841,-0.3342606
McDonald's,"139 North Circular Road, Stonebridge, Brent Park",51.5516777,-0.2616942
McDonald's,"1340 Mollison Avenue, Enfield",51.6565638,-0.0301637
McDonald's Travellers Friend,"480 Bath Road, Hounslow",51.4753542,-0.3970544
Menoo Eclectic Food,"25 Kensington Church Street, London",51.5033494,-0.1919
Miller & Carter Epping,"Epping Road, Epping",51.6756009,0.0622471
Miller & Carter Harlow,"London Rd, Harlow, London",51.7515444,0.1335915
Miller & Carter Harrow,"Brockhurst Corner, Uxbridge Road, Harrow",51.6130116,-0.333257
Mint Leaves,"ExCel London, Royal Victoria Dock, London",51.5082107,0.0316413
Mirch Masala,"The Broadway, Southall",51.512212,-0.384265
Mui & Koko Buffet,"1, Crown Gate, Harlow",51.7692261,0.0965167
Murakami,"63-66 Saint Martin's Lane, London",51.5114047,-0.1269752
NAMA- Artisan Raw Foods,"110 Talbot Road, London",51.5168678,-0.2003186
New Culture Revolution,"42 Duncan Street, London",51.533527,-0.104505
Niche | Gluten-free Dining,"197-199 Rosebery Avenue, London",51.5299367,-0.1054484
Novikov Restaurant & Bar,"50A Berkeley Street, London",51.507698,-0.1427978
Olive Garden,United Kingdom,51.5344908,-0.0636472
Oriental Village,"69 Old Church Road, Chingford",51.6191779,-0.0171122
Original Lahori Karahi,"29 Featherstone Road, Southall",51.5022518,-0.3842417
Oslo Hackney,"1A Amhurst Road, London",51.5471606,-0.0555841
OXO Restaurant Bar and Brasserie,"Oxo Tower, 8, Barge House Street, London",51.5084045,-0.1083675
P.S. Tattershall Castle,"Victoria Embankment, London",51.5056591,-0.1222697
Patpong Thai Restaurant,"146-148 Station Road, London",51.6337095,0.0096745
Pepe Italian Street Food,"57 Saint Martin's Lane, London",51.5109487,-0.1268958
Pepe's Piri Piri,"11 Watford Way, London",51.5833004,-0.2279034
Pepe's Piri Piri,"327 Kilburn High Road, London",51.5446263,-0.2014908
Pepe's Piri Piri,"607 Fulham Road, London",51.480243,-0.197991
Pepe's Piri Piri,"82 Brick Lane, London",51.5191607,-0.0716141
PIND PUNJABI,"15 Broadway Parade, Coldharbour Lane, Hayes",51.5109134,-0.4132299
Pump street food market,"168 Shoreditch High Street, London",51.5247307,-0.0776263
Quiznos Sub,"57-59 Whitechapel Road, London",51.5170499,-0.0679369
Raj Indian Restaurant,"75 High Street, Epping",51.6968128,0.107712
Restobistro,"82 High Street, Epping",51.6969131,0.1087724
Robin Hood,"Epping New Road, Loughton",51.6557973,0.0398954
Rodizio Rico,"The O2, Greenwich Peninsula, London",51.5027714,0.0045681
Rose Vegetarian Restaurant,"532/534 Kingsbury Road, London",51.5858194,-0.2771404
Saay Tharn,"13 Forest Road, Loughton",51.6473424,0.05376
Sahara Grill (Ilford),"406-408 Cranbrook Road, Ilford, Essex",51.5758969,0.0665087
Salsas,"3EP, 571 Cable Street, London",51.5119674,-0.0420905
Saravanaa Bhavan,"403 Alexandra Avenue, Harrow",51.5728399,-0.3715858
Shabu Shabu at Whole Foods Market,"63 Kensington High Street, London",51.5014519,-0.1906153
Shaka Zulu,"Stables Market, Chalk Farm Road, London",51.5415301,-0.1468241
Sharod,"3 State Parade, Barkingside, Ilford",51.59341,0.0844638
Simple Health Kitchen,"73A Watling Street, London",51.5131605,-0.0938717
Smilte Restaurant Ltd,"627-629 Lea Bridge Road, London",51.5768532,-0.0112475
Snaps & Rye,"93 Golborne Road, London",51.5214641,-0.2087539
Spice Rack Lounge,"35 Church Road, Stanmore",51.6173144,-0.3131233
Squires African Restarant,"272 Barking Road, London",51.5323749,0.0511328
St James Restaurant,"30 High Street, Bushey",51.6452561,-0.3673445
Strada,"13-15 Tavistock Street, Covent Garden, London",51.5122664,-0.1203605
Street Feast Hawker House,"Canada Street, London",51.497786,-0.044995
Subway,"134 High Street, Uxbridge",51.5477162,-0.4807094
Subway,"181 Field End Road, Eastcote",51.5778211,-0.3984718
Subway,"16 High Street, Southall",51.5109832,-0.374906
Subway,"158 High Street, Hounslow",51.4693311,-0.360639
Subway,"284A Station Road, Harrow",51.5820372,-0.3323798
Subway,"38 High Street, London",51.5124772,-0.3047788
Subway,"Central Buildings, 5 The Broadway, Ealing Broadway, London",51.5147164,-0.3024295
Subway,"535 Kingsbury Road, London",51.5847918,-0.2791931
Subway,"87 Station Road, Edgware",51.6133559,-0.2767357
Subway,"180 High Street, London & Greater London",51.5074476,-0.2717846
Subway,"42 Golders Green Road, London",51.5725133,-0.1977681
Subway,"171 Kilburn High Road, London & Greater London",51.5410175,-0.1971774
Subway,"523 Kingsland Road, London",51.5454381,-0.076028
Subway,"305 Mare Street, London, Hackney",51.5460158,-0.0553418
Subway,"2, 214 Hoe Street, London",51.5828829,-0.0240518
Subway,"9 Hall Lane, Chingford",51.6168596,-0.0185215
SUBWAY,"146C High Street, Epping",51.6984537,0.1108991
Tai Pan Oriental Buffet,"Capital Court, 30 Windsor Street, Uxbridge",51.5446389,-0.4814032
Tawana Thai Restaurant,"3 Westbourne Grove, London",51.5156755,-0.1885818
Tayyabs,"83-89 Fieldgate Street, London",51.5172367,-0.0634774
Thai Royale,"11 Highview Parade, Woodford Avenue, Ilford",51.5820186,0.0573445
The Breakfast Club,"2-4 Rufus Street, London",51.5271194,-0.0811388
The Clarendon,"123A Clarendon Road, Notting Hill / Holland Park, London",51.5126153,-0.2113168
The Colonnade Restaurant,"2 Warrington Crescent, London",51.524329,-0.1847285
The Curry Emporium,"597 Cranbrook Road, Ilford",51.5773632,0.0681736
The Duke,"2 Duke Street, Richmond",51.4614983,-0.3040366
The Fox,"39 Church Street, Twickenham",51.446719,-0.327193
The Garden House,"410 High Road, London",51.591455,-0.069758
The Gate,"51 Queen Caroline Street, Hammersmith",51.4903027,-0.225527
The Grill East Ham,"392 High Street North, London",51.5453351,0.0496414
The King's Arms,"Harvester, Stirling Way, Barnet",51.642339,-0.254471
The Last Post,"227 High Road, Loughton",51.6472986,0.0553944
The Loop Bar,"19 Dering Street, London",51.5141047,-0.1454766
The Modern Pantry Clerkenwell,"47-48 Saint John's Square, Clerkenwell",51.5230571,-0.1035947
The Narrow,"44 Narrow Street, London",51.5097336,-0.0378851
The Olive Tree Restaurant,"1&, 258 High Road, Loughton",51.6494279,0.0565655
The Park Tower Casino,"101 Knightsbridge, London",51.5017576,-0.1588437
The Pheasant Inn & Restaurant,"98 West End Lane, Harlington, Hayes",51.4851305,-0.4401871
The River Caf??,"Thames Wharf, Rainville Road, London",51.4841273,-0.2243051
The Swan,"73 High Street, Epping",51.6967812,0.107709
The Talbot,"275 High Road, North Weald Bassett, Epping",51.7243004,0.1817454
The Village Bar & Grill,"72 Station Lane, Hornchurch",51.5593962,0.2201704
The Village Pub,"31 Orford Road, London",51.5827598,-0.0118426
The Vintage Restaurant,"207 Station Road, Harrow",51.5848368,-0.332517
Theydon Oak Dining & Pub,"9 Coopersale St, Epping",51.695409,0.131664
Thyme,"Old Shire Lane, Waltham Abbey",51.6814964,0.0283489
Tibits,"12-14 Heddon Street, London",51.5112545,-0.1398155
Toby Carvery,"73 Hollybush Hill, London",51.5831109,0.0207238
Toby Carvery Aldenham,"3 Hartspring Lane, Watford",51.6660266,-0.3616648
Toby Carvery Enfield,"801 Great Cambridge Road, Enfield",51.6597401,-0.059309
tulip foods,"42 Windsor Road, London",51.5120742,-0.3005929
Two Kitchens,"167 High Road, Loughton",51.6450683,0.0530024
Two Kitchens,"167 High Road, Loughton",51.6451,0.053047
Vauxhall Street Food Garden,"6A S Lambeth Pl, London",51.4852,-0.1236679
Venerdi,"9 Chatsworth Road, London",51.5519242,-0.0441495
Viet Food,"34-, 36 Wardour Street, London",51.5115906,-0.1321718
Wong Kei,"41-43 Wardour Street, London",51.5114669,-0.1322801
Woo,"374 Forest Road, London",51.5901319,-0.0237999
Wood Oven,"126 George Lane, London",51.592829,0.0259766
Yoe-Bo Oriental Restaurant,"Gerry Raffles Square, London",51.5424924,0.0003406
Zaza,"3-5 High Street, Ruislip",51.5767531,-0.4267817
Zima Russian Street Food And Bar,"45 Frith Street, London",51.5133562,-0.1315179
Centro Formazione Croupier Casino Training School London,"6 Goodwin Close, London",51.494713,-0.0710177
Romford Shopping Hall,"43 Market Place, Romford",51.5798822,0.1821944
Hilton London Syon Park,"Park Rd, Brentford",51.479557,-0.315395
One Aldwych Hotel,"1 Aldwych, London",51.5117908,-0.11934
Waltham Abbey Marriott Hotel,"Old Shire Lane, Waltham Abbey",51.6817424,0.0285311
Party Tour Guide,"3 Saint Andrew's Road, London",51.5241766,0.0270815
